{"type":"FeatureCollection", "features": [
{"type":"Feature","geometry":{"type":"Polygon","coordinates":[[[-94.490515,39.558285],[-94.490513,39.557955],[-94.490011,39.557938],[-94.489103,39.55794],[-94.488828,39.557941],[-94.487921,39.557927],[-94.486959,39.557925],[-94.486384,39.557913],[-94.485702,39.557917],[-94.485443,39.557869],[-94.485035,39.557841],[-94.484879,39.557838],[-94.484369,39.557831],[-94.483912,39.557816],[-94.483656,39.557788],[-94.483573,39.557756],[-94.483487,39.557713],[-94.481887,39.55766],[-94.478542,39.557552],[-94.478539,39.556099],[-94.478536,39.5545],[-94.478546,39.552001],[-94.478554,39.550051],[-94.476898,39.550023],[-94.476813,39.548894],[-94.474057,39.548928],[-94.471559,39.548959],[-94.471557,39.549166],[-94.471556,39.549484],[-94.471536,39.549788],[-94.471528,39.549931],[-94.471497,39.549988],[-94.470709,39.549979],[-94.470149,39.549974],[-94.468345,39.549954],[-94.467558,39.549946],[-94.466384,39.550007],[-94.465629,39.550047],[-94.462861,39.550049],[-94.461687,39.55005],[-94.461403,39.550049],[-94.460551,39.550048],[-94.460268,39.550048],[-94.459869,39.550046],[-94.458675,39.55004],[-94.458277,39.550039],[-94.458074,39.550038],[-94.457467,39.550036],[-94.457265,39.550036],[-94.457258,39.549165],[-94.457239,39.546554],[-94.457239,39.546423],[-94.4565,39.546439],[-94.456401,39.54644],[-94.456105,39.546444],[-94.456007,39.546446],[-94.455924,39.546446],[-94.455677,39.546448],[-94.455595,39.546449],[-94.455124,39.546452],[-94.453714,39.546465],[-94.453244,39.546469],[-94.45275,39.5464],[-94.452749,39.546583],[-94.452748,39.548629],[-94.452748,39.549312],[-94.452738,39.5496],[-94.452725,39.549979],[-94.452728,39.550467],[-94.452731,39.550757],[-94.452732,39.550914],[-94.452737,39.551385],[-94.452739,39.551543],[-94.452646,39.551638],[-94.452628,39.551699],[-94.452468,39.552265],[-94.452294,39.552358],[-94.452052,39.552357],[-94.451329,39.552355],[-94.451088,39.552355],[-94.451032,39.552442],[-94.450975,39.552529],[-94.450969,39.552538],[-94.451088,39.553476],[-94.451011,39.553741],[-94.450931,39.554021],[-94.45032,39.554415],[-94.449077,39.554438],[-94.448042,39.554072],[-94.447304,39.553455],[-94.446564,39.552836],[-94.446299,39.552442],[-94.44618,39.552264],[-94.445293,39.551643],[-94.444938,39.551395],[-94.444455,39.551218],[-94.444377,39.551189],[-94.444157,39.551226],[-94.443697,39.551303],[-94.443372,39.551555],[-94.443372,39.552356],[-94.443579,39.552905],[-94.443579,39.553272],[-94.443579,39.553385],[-94.443431,39.553706],[-94.44287,39.554209],[-94.44284,39.554279],[-94.442841,39.554367],[-94.442846,39.554632],[-94.442848,39.554721],[-94.442856,39.555285],[-94.44288,39.556977],[-94.442889,39.557542],[-94.442896,39.557698],[-94.442917,39.558166],[-94.442925,39.558323],[-94.442928,39.558437],[-94.442939,39.558782],[-94.442943,39.558897],[-94.442946,39.559203],[-94.442955,39.560124],[-94.442959,39.560431],[-94.44296,39.560503],[-94.44297,39.5611],[-94.442994,39.562402],[-94.443006,39.563106],[-94.443018,39.563776],[-94.443019,39.563829],[-94.443022,39.56399],[-94.443024,39.564044],[-94.443026,39.564166],[-94.443034,39.564534],[-94.443037,39.564657],[-94.443037,39.564719],[-94.44304,39.564906],[-94.443041,39.564969],[-94.443038,39.565083],[-94.443028,39.565426],[-94.443026,39.565541],[-94.443023,39.565573],[-94.443016,39.565668],[-94.443014,39.565701],[-94.443019,39.565849],[-94.443037,39.566294],[-94.443043,39.566443],[-94.44313,39.566578],[-94.443393,39.566984],[-94.44342,39.567026],[-94.443421,39.567138],[-94.443316,39.568233],[-94.443003,39.571519],[-94.442899,39.572615],[-94.442884,39.57326],[-94.44284,39.575196],[-94.442832,39.575593],[-94.443081,39.575594],[-94.443966,39.575589],[-94.446621,39.575576],[-94.447507,39.575572],[-94.447927,39.575567],[-94.449483,39.575581],[-94.452183,39.575569],[-94.452082,39.578799],[-94.452038,39.580244],[-94.452021,39.580775],[-94.45201,39.581192],[-94.451979,39.582444],[-94.451976,39.582578],[-94.45226,39.58258],[-94.453163,39.582618],[-94.453937,39.582651],[-94.455874,39.582733],[-94.456778,39.582772],[-94.456888,39.582773],[-94.456862,39.586186],[-94.45706,39.586189],[-94.464767,39.586299],[-94.46168,39.582866],[-94.471348,39.583056],[-94.471409,39.583058],[-94.471368,39.579476],[-94.471376,39.578713],[-94.471395,39.577115],[-94.471403,39.576427],[-94.471412,39.575665],[-94.471405,39.574974],[-94.471384,39.572902],[-94.471377,39.572212],[-94.471259,39.57221],[-94.470919,39.572207],[-94.469961,39.572201],[-94.469548,39.572191],[-94.469092,39.57218],[-94.468313,39.572162],[-94.467723,39.572158],[-94.466953,39.572153],[-94.46592,39.572146],[-94.464695,39.572142],[-94.463617,39.572129],[-94.463194,39.572124],[-94.462307,39.572118],[-94.462249,39.572119],[-94.462191,39.572118],[-94.461895,39.572115],[-94.461374,39.572112],[-94.460917,39.57211],[-94.460833,39.57211],[-94.46048,39.572112],[-94.460476,39.571971],[-94.460464,39.571551],[-94.460461,39.571411],[-94.460338,39.570363],[-94.459972,39.567218],[-94.45985,39.566171],[-94.459844,39.565307],[-94.460226,39.565299],[-94.461384,39.565403],[-94.461574,39.565421],[-94.464873,39.565526],[-94.465406,39.565543],[-94.465412,39.565386],[-94.465419,39.564912],[-94.466242,39.564929],[-94.466472,39.564929],[-94.468318,39.564936],[-94.468724,39.564937],[-94.469465,39.56494],[-94.469631,39.564942],[-94.470685,39.564959],[-94.471027,39.564964],[-94.472056,39.564979],[-94.472399,39.564985],[-94.472569,39.564987],[-94.473083,39.564995],[-94.473254,39.564998],[-94.473689,39.565001],[-94.474996,39.565011],[-94.475432,39.565015],[-94.476425,39.565023],[-94.476897,39.565028],[-94.478539,39.565049],[-94.480763,39.565067],[-94.481294,39.565054],[-94.481826,39.565041],[-94.482278,39.565011],[-94.482756,39.564962],[-94.482847,39.564952],[-94.483046,39.564933],[-94.483119,39.56492],[-94.48321,39.564905],[-94.483647,39.564828],[-94.484358,39.564662],[-94.484834,39.564512],[-94.485529,39.564294],[-94.485946,39.564131],[-94.48645,39.563907],[-94.48685,39.563702],[-94.48734,39.563426],[-94.487617,39.563255],[-94.487634,39.563244],[-94.488037,39.562953],[-94.488654,39.562484],[-94.488778,39.562376],[-94.489147,39.562041],[-94.489884,39.561373],[-94.490397,39.560929],[-94.490413,39.560737],[-94.490461,39.56016],[-94.490478,39.559969],[-94.490478,39.559566],[-94.490479,39.559314],[-94.490501,39.558639],[-94.490512,39.558357],[-94.490515,39.558285]]]},"properties":{"STATEFP":"29","PLACEFP":"58250","PLACENS":"02396228","GEOID":"2958250","GEOIDFQ":"1600000US2958250","NAME":"Plattsburg","NAMELSAD":"Plattsburg city","LSAD":"25","CLASSFP":"C1","PCICBSA":"N","MTFCC":"G4110","FUNCSTAT":"A","ALAND":9325927,"AWATER":66702,"INTPTLAT":"+39.5541657","INTPTLON":"-094.4633554"}},
{"type":"Feature","geometry":{"type":"Polygon","coordinates":[[[-94.327817,39.637474],[-94.327815,39.637287],[-94.327812,39.636726],[-94.327811,39.636539],[-94.327809,39.636315],[-94.327805,39.635643],[-94.327804,39.63542],[-94.327794,39.633519],[-94.327792,39.633321],[-94.327789,39.632727],[-94.327788,39.63253],[-94.327761,39.632031],[-94.327711,39.631084],[-94.32774,39.630537],[-94.327767,39.63004],[-94.326755,39.630029],[-94.326554,39.630027],[-94.325368,39.630025],[-94.323721,39.63],[-94.323544,39.629998],[-94.323213,39.629997],[-94.32271,39.629995],[-94.322189,39.629992],[-94.321331,39.63],[-94.319982,39.630014],[-94.319005,39.630032],[-94.319003,39.630012],[-94.318985,39.629977],[-94.317809,39.62992],[-94.317799,39.633506],[-94.31783,39.635402],[-94.317811,39.637223],[-94.317802,39.638604],[-94.317785,39.641318],[-94.317779,39.64275],[-94.317775,39.644132],[-94.316963,39.644149],[-94.314529,39.644199],[-94.313718,39.644217],[-94.313746,39.644637],[-94.313762,39.644867],[-94.313831,39.645898],[-94.31386,39.646319],[-94.313925,39.647959],[-94.313938,39.648279],[-94.317672,39.64831],[-94.317657,39.647584],[-94.317657,39.64744],[-94.317658,39.647396],[-94.319255,39.647407],[-94.319262,39.647391],[-94.319286,39.647347],[-94.319294,39.647332],[-94.31941,39.647109],[-94.319762,39.64644],[-94.319777,39.646414],[-94.319858,39.646208],[-94.320011,39.645946],[-94.32047,39.64516],[-94.320624,39.644899],[-94.320859,39.644541],[-94.321567,39.64347],[-94.321577,39.643457],[-94.321696,39.643063],[-94.322037,39.64197],[-94.322139,39.641644],[-94.322317,39.64031],[-94.32212,39.638962],[-94.322027,39.638589],[-94.321752,39.637478],[-94.321863,39.637479],[-94.322196,39.637482],[-94.322307,39.637484],[-94.322378,39.637484],[-94.322595,39.637485],[-94.322667,39.637486],[-94.323605,39.637483],[-94.326422,39.637477],[-94.32715,39.637476],[-94.327361,39.637476],[-94.327452,39.637475],[-94.327725,39.637474],[-94.327817,39.637474]]]},"properties":{"STATEFP":"29","PLACEFP":"74176","PLACENS":"02400009","GEOID":"2974176","GEOIDFQ":"1600000US2974176","NAME":"Turney","NAMELSAD":"Turney village","LSAD":"47","CLASSFP":"C1","PCICBSA":"N","MTFCC":"G4110","FUNCSTAT":"A","ALAND":1202873,"AWATER":0,"INTPTLAT":"+39.6376031","INTPTLON":"-094.3210281"}},
{"type":"Feature","geometry":{"type":"MultiPolygon","coordinates":[[[[-94.492673,39.747936],[-94.49275000000002,39.747931],[-94.492759,39.747931],[-94.493151,39.7479],[-94.492749,39.747931],[-94.492673,39.747936]]],[[[-94.505249,39.747792],[-94.50539,39.747793],[-94.505391,39.747793],[-94.505249,39.747792]]]]},"properties":{"STATEFP":"29","PLACEFP":"70738","PLACENS":"02395967","GEOID":"2970738","GEOIDFQ":"1600000US2970738","NAME":"Stewartsville","NAMELSAD":"Stewartsville city","LSAD":"25","CLASSFP":"C1","PCICBSA":"N","MTFCC":"G4110","FUNCSTAT":"A","ALAND":2559217,"AWATER":23026,"INTPTLAT":"+39.7564992","INTPTLON":"-094.4990487"}},
{"type":"Feature","geometry":{"type":"MultiPolygon","coordinates":[[[[-94.348982,39.455552],[-94.34838,39.455569],[-94.348369,39.45557],[-94.348381,39.455569],[-94.348982,39.455552]]],[[[-94.342168,39.45556],[-94.342053,39.45556],[-94.341707,39.455563],[-94.34159,39.455565],[-94.341386,39.455566],[-94.340765,39.455571],[-94.34055900000001,39.455573],[-94.340478,39.455573],[-94.340238,39.455575],[-94.340158,39.455576],[-94.340136,39.455576],[-94.340071,39.455576],[-94.34005,39.455577],[-94.339916,39.455584],[-94.33951700000001,39.455607],[-94.339384,39.455616],[-94.339314,39.455614],[-94.339108,39.455611],[-94.339039,39.45561],[-94.338871,39.455611],[-94.338846,39.45561],[-94.338271,39.455604],[-94.338079,39.455603],[-94.338056,39.455602],[-94.337988,39.455602],[-94.337966,39.455602],[-94.337826,39.4556],[-94.33741,39.455597],[-94.337271,39.455596],[-94.33704,39.455595],[-94.336899,39.455594],[-94.336705,39.455594],[-94.336157,39.45559],[-94.335405,39.455558],[-94.334868,39.455516],[-94.334613,39.455525],[-94.333744,39.455554],[-94.333262,39.455569],[-94.333194,39.455571],[-94.332714,39.455566],[-94.332337,39.455563],[-94.330055,39.455585],[-94.32989,39.455587],[-94.32987,39.455587],[-94.329808,39.455587],[-94.329788,39.455588],[-94.32976600000002,39.455588],[-94.3297,39.455588],[-94.329679,39.455589],[-94.329382,39.455592],[-94.329039,39.455593],[-94.327119,39.4556],[-94.32648,39.455603],[-94.326479,39.455626],[-94.326476,39.455695],[-94.326475,39.455718],[-94.327114,39.45572],[-94.329031,39.455727],[-94.329671,39.45573],[-94.329715,39.45573],[-94.32985,39.45573],[-94.329895,39.45573],[-94.329926,39.45573],[-94.33002,39.45573],[-94.330052,39.45573],[-94.332709,39.455708],[-94.333234,39.455704],[-94.336613,39.455676],[-94.336502,39.455775],[-94.336226,39.455951],[-94.335985,39.456143],[-94.335851,39.456396],[-94.33579,39.456621],[-94.335797,39.457037],[-94.33579,39.457142],[-94.335696,39.458703],[-94.335665,39.459224],[-94.335599,39.459304],[-94.335402,39.459546],[-94.335337,39.459627],[-94.334945,39.45964],[-94.333819,39.45968],[-94.333805,39.459726],[-94.333696,39.460103],[-94.333677,39.460102],[-94.333623,39.460101],[-94.333605,39.460101],[-94.333343,39.460096],[-94.332559,39.460082],[-94.332298,39.460078],[-94.331106,39.460046],[-94.330049,39.460019],[-94.32753,39.459968],[-94.326339,39.459945],[-94.326338,39.459774],[-94.326335,39.459262],[-94.326334,39.459092],[-94.32547,39.45908],[-94.322879,39.459046],[-94.322016,39.459035],[-94.321995,39.459124],[-94.321984,39.459195],[-94.321924,39.45959],[-94.321905,39.459678],[-94.321871,39.459838],[-94.321649,39.459834],[-94.321132,39.459825],[-94.320985,39.459822],[-94.320764,39.459819],[-94.320599,39.459817],[-94.320104,39.459812],[-94.319939,39.459811],[-94.319462,39.459783],[-94.318033,39.4597],[-94.317557,39.459673],[-94.317558,39.459643],[-94.317574,39.459582],[-94.31765,39.459314],[-94.317713,39.459245],[-94.317364,39.459215],[-94.316508,39.459142],[-94.31647,39.459329],[-94.316402,39.459673],[-94.316287,39.459671],[-94.316223,39.459671],[-94.315942,39.459671],[-94.315827,39.459671],[-94.315399,39.459649],[-94.314115,39.459586],[-94.313688,39.459565],[-94.313244,39.459525],[-94.311912,39.459405],[-94.311871,39.459402],[-94.311476,39.459317],[-94.311362,39.459292],[-94.31102,39.45922],[-94.310906,39.459197],[-94.309484,39.458821],[-94.307737,39.458375],[-94.306355,39.458023],[-94.306103,39.457955],[-94.305349,39.457753],[-94.305098,39.457686],[-94.305106,39.45771],[-94.30513,39.457782],[-94.305139,39.457807],[-94.305035,39.457808],[-94.304917,39.45781],[-94.304723,39.457821],[-94.304694,39.457823],[-94.304621,39.457835],[-94.304931,39.457941],[-94.305008,39.457968],[-94.305885,39.458193],[-94.306204,39.458276],[-94.309825,39.459196],[-94.309601,39.45934],[-94.308654,39.459735],[-94.308151,39.45992],[-94.308699,39.459921],[-94.310344,39.459925],[-94.310893,39.459927],[-94.310977,39.459854],[-94.311229,39.459635],[-94.311314,39.459563],[-94.311817,39.459665],[-94.312207,39.459699],[-94.31358,39.459822],[-94.314407,39.459869],[-94.314915,39.459897],[-94.315819,39.459949],[-94.315812,39.460131],[-94.315809,39.460231],[-94.315807,39.46047],[-94.315805,39.46068],[-94.315805,39.460863],[-94.316564,39.46087],[-94.318841,39.460891],[-94.3196,39.460898],[-94.319656,39.460733],[-94.319776,39.460389],[-94.319817,39.460237],[-94.319864,39.46007],[-94.320013,39.460069],[-94.32046,39.460066],[-94.32061,39.460066],[-94.32085,39.460073],[-94.320972,39.460077],[-94.321572,39.460096],[-94.321813,39.460104],[-94.321865,39.4601],[-94.321833,39.460559],[-94.321732,39.460716],[-94.321552,39.460948],[-94.322452,39.46095],[-94.322913,39.460952],[-94.322901,39.461006],[-94.322877,39.461067],[-94.32282,39.461223],[-94.322804,39.461266],[-94.322702,39.461379],[-94.322622,39.46147],[-94.323227,39.461776],[-94.323811,39.462073],[-94.32448,39.462403],[-94.324484,39.461767],[-94.324489,39.461089],[-94.324857,39.461101],[-94.325964,39.461138],[-94.326333,39.461151],[-94.326343,39.460966],[-94.326351,39.46083],[-94.326344,39.460411],[-94.326342,39.460227],[-94.327467,39.460248],[-94.330842,39.460313],[-94.331968,39.460335],[-94.332278,39.460341],[-94.333211,39.460362],[-94.333522,39.460369],[-94.33353,39.460627],[-94.333535,39.460779],[-94.33416,39.460776],[-94.33442,39.460776],[-94.334439,39.46075],[-94.334499,39.460673],[-94.334519,39.460648],[-94.334617,39.460661],[-94.334913,39.460703],[-94.335012,39.460717],[-94.334808,39.461073],[-94.334661,39.461331],[-94.334197,39.462141],[-94.334152,39.462221],[-94.334044,39.462521],[-94.33399,39.462672],[-94.333828,39.463125],[-94.333774,39.463277],[-94.333675,39.46356],[-94.333525,39.463992],[-94.333519,39.464435],[-94.333518,39.464554],[-94.333696,39.464593],[-94.333716,39.464607],[-94.333778,39.464651],[-94.333799,39.464666],[-94.333868,39.464303],[-94.333966,39.463791],[-94.33402,39.463566],[-94.334101,39.463223],[-94.334187,39.462865],[-94.334338,39.462861],[-94.334792,39.462853],[-94.334944,39.462851],[-94.335,39.462609],[-94.335082,39.462264],[-94.334691,39.462264],[-94.334443,39.462264],[-94.334623,39.461943],[-94.335167,39.460982],[-94.33527,39.460801],[-94.335129,39.460727],[-94.335196,39.460637],[-94.3354,39.460369],[-94.335468,39.46028],[-94.335567,39.460149],[-94.335575,39.460139],[-94.335873,39.459765],[-94.335976,39.459637],[-94.336131,39.459442],[-94.336596,39.458859],[-94.336752,39.458665],[-94.336662,39.45862],[-94.336394,39.458488],[-94.336305,39.458444],[-94.33649,39.458218],[-94.337046,39.457542],[-94.337185,39.457375],[-94.337234,39.457319],[-94.337323,39.457366],[-94.33759,39.45751],[-94.33768,39.457558],[-94.33775,39.457487],[-94.33796,39.457275],[-94.338031,39.457205],[-94.337936,39.457154],[-94.337652,39.457001],[-94.337558,39.456951],[-94.337624,39.456875],[-94.337704,39.456785],[-94.337823,39.456649],[-94.33789,39.456574],[-94.337989,39.456648],[-94.338287,39.456793],[-94.33839,39.456843],[-94.338447,39.456785],[-94.33847,39.456763],[-94.338596,39.456658],[-94.338632,39.456627],[-94.338695,39.456576],[-94.33889,39.456754],[-94.338983,39.456822],[-94.339374,39.457109],[-94.339374,39.456725],[-94.339368,39.456453],[-94.339362,39.456073],[-94.339414,39.456128],[-94.33957,39.456293],[-94.339623,39.456348],[-94.339715,39.456267],[-94.339992,39.456027],[-94.340018,39.456005],[-94.340087,39.45595],[-94.340158,39.455953],[-94.340154,39.456015],[-94.340153,39.456038],[-94.340141,39.456156],[-94.340398,39.456152],[-94.340532,39.45615],[-94.340531,39.45616],[-94.34053,39.456189],[-94.34053,39.4562],[-94.340521,39.456399],[-94.340494,39.456998],[-94.340486,39.457198],[-94.340678,39.457209],[-94.341255,39.457245],[-94.341448,39.457257],[-94.341448,39.457297],[-94.341448,39.457417],[-94.341448,39.457458],[-94.341642,39.457453],[-94.342225,39.45744],[-94.34242,39.457437],[-94.342682,39.45759],[-94.343033,39.457558],[-94.343569,39.457546],[-94.34366,39.457545],[-94.345255,39.457512],[-94.345279,39.456202],[-94.344696,39.456189],[-94.343504,39.456164],[-94.343293,39.45616],[-94.343273,39.45616],[-94.342662,39.456174],[-94.342452,39.45618],[-94.342455,39.456126],[-94.342468,39.455966],[-94.342473,39.455913],[-94.342343,39.455892],[-94.342121,39.455857],[-94.342147,39.455689],[-94.342168,39.45556]],[[-94.342938,39.456796],[-94.342894,39.457028],[-94.342651,39.457026],[-94.342397,39.457025],[-94.342397,39.456956],[-94.342398,39.456926],[-94.342398,39.456862],[-94.342406,39.45675],[-94.342412,39.456682],[-94.34266,39.456735],[-94.342938,39.456796]],[[-94.341918,39.456188],[-94.341907,39.456412],[-94.341887,39.456875],[-94.341674,39.456873],[-94.341449,39.456871],[-94.341449,39.456735],[-94.341449,39.45633],[-94.34145,39.456195],[-94.341543,39.456193],[-94.341824,39.456189],[-94.341918,39.456188]]]]},"properties":{"STATEFP":"29","PLACEFP":"32752","PLACENS":"02394408","GEOID":"2932752","GEOIDFQ":"1600000US2932752","NAME":"Holt","NAMELSAD":"Holt city","LSAD":"25","CLASSFP":"C1","PCICBSA":"N","MTFCC":"G4110","FUNCSTAT":"A","ALAND":1345224,"AWATER":0,"INTPTLAT":"+39.4542087","INTPTLON":"-094.3385112"}},
{"type":"Feature","geometry":{"type":"Polygon","coordinates":[[[-94.205961,39.745841],[-94.20738,39.745873],[-94.207389,39.745873],[-94.210101,39.745936],[-94.210465,39.745946],[-94.21061,39.745949],[-94.211045,39.745961],[-94.21119,39.745965],[-94.211195,39.745617],[-94.21121,39.744573],[-94.211214,39.744283],[-94.211474,39.744166],[-94.211947,39.743951],[-94.212216,39.743825],[-94.212441,39.743707],[-94.212454,39.744206],[-94.212485,39.745423],[-94.212061,39.745427],[-94.212061,39.745438],[-94.212063,39.745989],[-94.212548,39.746003],[-94.21271,39.746007],[-94.215301,39.746079],[-94.217473,39.746139],[-94.219961,39.746208],[-94.219965,39.746209],[-94.220006,39.746209],[-94.220283,39.746218],[-94.220974,39.746236],[-94.22119000000002,39.746242],[-94.22228,39.746271],[-94.222554,39.746283],[-94.222693,39.746287],[-94.222721,39.74628],[-94.22294,39.746282],[-94.223607,39.74629],[-94.223771,39.746292],[-94.223829,39.746291],[-94.223887,39.746294],[-94.224089,39.746296],[-94.224522,39.746297],[-94.226602,39.746307],[-94.227193,39.74631],[-94.227296,39.746309],[-94.22743600000001,39.746309],[-94.227856,39.746309],[-94.22799700000002,39.746309],[-94.228024,39.746308],[-94.229247,39.746299],[-94.22941,39.746299],[-94.22941,39.746298],[-94.229467,39.746298],[-94.22958,39.746299],[-94.229783,39.746282],[-94.22998,39.746247],[-94.230191,39.746203],[-94.230285,39.746169],[-94.230344,39.746145],[-94.23035,39.746139],[-94.230484,39.746164],[-94.230741,39.746211],[-94.231625,39.74639],[-94.232913,39.746359],[-94.233067,39.746356],[-94.233519,39.746351000000004],[-94.23398,39.74634600000001],[-94.233989,39.74634600000001],[-94.234643,39.746343],[-94.234646,39.746343],[-94.235554,39.746334],[-94.236205,39.74634600000001],[-94.236214,39.746347],[-94.236897,39.746348],[-94.237521,39.74634600000001],[-94.237536,39.746345],[-94.237667,39.746345],[-94.238063,39.746345],[-94.238103,39.746345],[-94.238195,39.74635000000001],[-94.238197,39.746351000000004],[-94.238315,39.746351000000004],[-94.23869800000001,39.746351000000004],[-94.238951,39.746342],[-94.239559,39.746324],[-94.239559,39.746313],[-94.239742,39.746308],[-94.240596,39.746311],[-94.240859,39.746306],[-94.241318,39.746307],[-94.242186,39.746303],[-94.242672,39.746308],[-94.243717,39.746293],[-94.244106,39.746291],[-94.244112,39.746291],[-94.24414,39.746289],[-94.244144,39.746289],[-94.244831,39.746285],[-94.245058,39.746291],[-94.245162,39.746294],[-94.246363,39.74633],[-94.247678,39.746345],[-94.247707,39.74634600000001],[-94.248331,39.746341],[-94.24836,39.746341],[-94.249007,39.746352],[-94.249012,39.746352],[-94.249426,39.746369],[-94.250157,39.746371],[-94.251711,39.746371],[-94.251791,39.746373],[-94.251797,39.746374],[-94.252342,39.746379],[-94.252344,39.74638],[-94.253114,39.746398],[-94.253139,39.746397],[-94.253849,39.7464],[-94.254018,39.746402],[-94.25402,39.745927],[-94.254026,39.744502],[-94.254029,39.744028],[-94.254017,39.742731],[-94.254703,39.742735],[-94.256539,39.742754],[-94.256706,39.742755],[-94.25721,39.74276],[-94.257378,39.742762],[-94.257371,39.741574],[-94.257365,39.740331],[-94.255047,39.74029],[-94.253999,39.740272],[-94.254013,39.740134],[-94.254007,39.739906],[-94.254034,39.738584],[-94.256359,39.738573],[-94.256379,39.735551],[-94.256322,39.73555],[-94.256152,39.73555],[-94.256096,39.73555],[-94.255895,39.735549],[-94.255292,39.735549],[-94.255091,39.735549],[-94.255126,39.734884],[-94.255156,39.734318],[-94.253725,39.73429],[-94.253166,39.734279],[-94.25306,39.734278],[-94.253061,39.734135],[-94.253062,39.733601],[-94.253064,39.733142],[-94.253065,39.732859],[-94.253069,39.731573],[-94.253072,39.730897],[-94.253178,39.730897],[-94.253196,39.729434],[-94.253223,39.728717],[-94.253224,39.728043],[-94.253226,39.72688],[-94.253242,39.725842],[-94.253245,39.725657],[-94.253263,39.724657],[-94.253113,39.724656],[-94.253154,39.724579],[-94.253207,39.724198],[-94.253262,39.723812],[-94.253633,39.723462],[-94.254008,39.723111],[-94.254147,39.722981],[-94.255079,39.723871],[-94.255175,39.724674],[-94.255709,39.72468],[-94.256411,39.724688],[-94.256323,39.724327],[-94.256134,39.723848],[-94.255857,39.723381],[-94.255541,39.723091],[-94.255188,39.722901],[-94.254709,39.722699],[-94.254721,39.720085],[-94.255098,39.720074],[-94.255659,39.720058],[-94.255669,39.719907],[-94.255726,39.719],[-94.255761,39.718462],[-94.255823,39.717504],[-94.256157,39.717468],[-94.256211,39.715983],[-94.256225,39.715582],[-94.25578,39.71557],[-94.25433,39.71553],[-94.253069,39.715496],[-94.253055,39.717858],[-94.252451,39.717827],[-94.252321,39.72022],[-94.251916,39.720182],[-94.251952,39.720517],[-94.251969,39.720675],[-94.252323,39.720703],[-94.252307,39.722606],[-94.250901,39.722565],[-94.250841,39.724275],[-94.250831,39.724555],[-94.250321,39.724563],[-94.250223,39.724564],[-94.248779,39.724558],[-94.24853,39.724558],[-94.243701,39.724542],[-94.243701,39.724246],[-94.243699,39.722575],[-94.243699,39.721196],[-94.239455,39.721197],[-94.239454,39.721471],[-94.239454,39.722882],[-94.238899,39.722881],[-94.238784,39.722872],[-94.238785,39.723108],[-94.238786,39.723548],[-94.238787,39.723841],[-94.238787,39.723956],[-94.238788,39.724397],[-94.238791,39.724605],[-94.238807,39.725803],[-94.238812,39.726153],[-94.23804,39.726162],[-94.238068,39.72564],[-94.237343,39.725644],[-94.23686,39.725648],[-94.23688,39.725045],[-94.235626,39.725061],[-94.235044,39.725069],[-94.235085,39.727066],[-94.235771,39.727099],[-94.23648,39.727133],[-94.238457,39.727228],[-94.238354,39.727464],[-94.238214,39.727784],[-94.237093,39.727764],[-94.234144,39.727712],[-94.234158,39.728433],[-94.234184,39.729657],[-94.232498,39.729688],[-94.232086,39.729697],[-94.231559,39.729692],[-94.23052,39.729685],[-94.230485,39.730222],[-94.230452,39.730747],[-94.230432,39.731548],[-94.229238,39.731548],[-94.229008,39.731541],[-94.229025,39.72953],[-94.228149,39.729513],[-94.226748,39.729513],[-94.226596,39.729483],[-94.226568,39.729472],[-94.226411,39.729458],[-94.226305,39.729456],[-94.225449,39.729441],[-94.225427,39.729442],[-94.225211,39.729455],[-94.224771,39.729435],[-94.224772,39.729482],[-94.224774,39.729784],[-94.224772,39.731458],[-94.224772,39.731528],[-94.223791,39.7315],[-94.222819,39.731479],[-94.221308,39.731461],[-94.221233,39.731167],[-94.221067,39.730603],[-94.221019,39.730438],[-94.220996,39.73035],[-94.221,39.729895],[-94.221015,39.728612],[-94.220936,39.728612],[-94.220813,39.728612],[-94.220482,39.728612],[-94.2204,39.728609],[-94.220155,39.728602],[-94.220074,39.7286],[-94.218544,39.728571],[-94.217821,39.728558],[-94.217585,39.72483],[-94.217651,39.723225],[-94.216699,39.723185],[-94.216739,39.715881],[-94.209639,39.715803],[-94.205902,39.715762],[-94.20576174767935,39.715767968183854],[-94.205766,39.715962],[-94.205767,39.716221],[-94.20576800000002,39.716655],[-94.205782,39.721613],[-94.20577,39.723257],[-94.205773,39.723501],[-94.20577800000001,39.723909],[-94.20579,39.724546],[-94.205787,39.725136],[-94.205787,39.725217],[-94.205762,39.727899],[-94.205766,39.729702],[-94.20577600000001,39.729808],[-94.205799,39.73004],[-94.205874,39.730209],[-94.205806,39.730265],[-94.20577600000001,39.730341],[-94.20577600000001,39.730612],[-94.20579,39.730811],[-94.205797,39.73102],[-94.205834,39.731095],[-94.205854,39.73111],[-94.205897,39.731142],[-94.206036,39.731189],[-94.206049,39.73119],[-94.206214,39.731214],[-94.206401,39.731223],[-94.206503,39.731222],[-94.206627,39.731183],[-94.206678,39.731158],[-94.206737,39.73113],[-94.206866,39.731056],[-94.207051,39.731132],[-94.207299,39.731198],[-94.207532,39.731233],[-94.207578,39.731235],[-94.207895,39.731255],[-94.20871,39.731279],[-94.209795,39.731301],[-94.21018,39.731309],[-94.210328,39.724118],[-94.215329,39.724158],[-94.215304,39.724763],[-94.215356,39.728518],[-94.215353,39.728895],[-94.21536,39.729918],[-94.215371,39.731448],[-94.215256,39.731447],[-94.215154,39.731445],[-94.215156,39.731684],[-94.215173,39.733452],[-94.2152,39.736176],[-94.215213,39.73898],[-94.215205,39.740801],[-94.215202,39.740994],[-94.21527,39.741052],[-94.215299,39.741092],[-94.215285,39.741134],[-94.215255,39.741206],[-94.215261,39.741216],[-94.215235,39.741251],[-94.215229,39.742153],[-94.215227,39.742408],[-94.214854,39.742499],[-94.214547,39.742617],[-94.213976,39.742885],[-94.212937,39.743359],[-94.212867,39.743391],[-94.212525,39.743547],[-94.212415,39.743598],[-94.21214,39.743724],[-94.211592,39.743973],[-94.211213,39.744157],[-94.211196,39.744165],[-94.210723,39.744382],[-94.210475,39.744493],[-94.21044,39.744509],[-94.210266,39.744587],[-94.209731,39.744825],[-94.209612,39.744876],[-94.20933,39.744997],[-94.209178,39.745055],[-94.208868,39.745138],[-94.208709,39.745177],[-94.208606,39.745202],[-94.208312,39.745261],[-94.207967,39.745312],[-94.207734,39.745331],[-94.207574,39.745336],[-94.207476,39.745339],[-94.207384,39.745341],[-94.20725,39.745344],[-94.207092,39.745341],[-94.206256,39.745336],[-94.20596209373711,39.74533300095651],[-94.205963,39.745395],[-94.205961,39.745841]],[[-94.239462,39.723844],[-94.239461,39.723981],[-94.239462,39.724598],[-94.239277,39.724597],[-94.239021,39.724597],[-94.23902,39.724411],[-94.239018,39.723953],[-94.239017,39.723843],[-94.239277,39.723843],[-94.239462,39.723844]],[[-94.218942,39.740211],[-94.218872,39.74203],[-94.218864,39.742277],[-94.218859,39.742427],[-94.218318,39.742412],[-94.218198,39.742407],[-94.218216,39.740198],[-94.218863,39.74021],[-94.218942,39.740211]]]},"properties":{"STATEFP":"29","PLACEFP":"10828","PLACENS":"02393723","GEOID":"2910828","GEOIDFQ":"1600000US2910828","NAME":"Cameron","NAMELSAD":"Cameron city","LSAD":"25","CLASSFP":"C1","PCICBSA":"N","MTFCC":"G4110","FUNCSTAT":"A","ALAND":17774942,"AWATER":699502,"INTPTLAT":"+39.7444986","INTPTLON":"-094.2323239"}},
{"type":"Feature","geometry":{"type":"Polygon","coordinates":[[[-94.602132,39.617362],[-94.60212,39.616743],[-94.602112,39.615713],[-94.60210200000002,39.615216],[-94.60210400000001,39.61424],[-94.602105,39.614097],[-94.60210200000002,39.613677],[-94.602097,39.613249],[-94.602089,39.612804],[-94.602075,39.611973],[-94.602061,39.611806],[-94.601998,39.611012],[-94.601925,39.61007],[-94.601915,39.609943],[-94.60186,39.609098],[-94.601814,39.608574],[-94.60179,39.608306],[-94.601716,39.607028],[-94.601629,39.605609],[-94.601543,39.605606],[-94.601289,39.605598],[-94.601204,39.605596],[-94.60101,39.605601],[-94.599986,39.605566],[-94.59665,39.605454],[-94.59665,39.605769],[-94.59665,39.606988],[-94.596193,39.606992],[-94.594825,39.607005],[-94.594369,39.60701],[-94.594368,39.606992],[-94.594368,39.606938],[-94.594368,39.60692],[-94.594318,39.606905],[-94.59415,39.606912],[-94.594137,39.606913],[-94.593489,39.606907],[-94.593269,39.606906],[-94.593248,39.606931],[-94.593221,39.606964],[-94.593191,39.607011],[-94.593174,39.60704],[-94.591645,39.607048],[-94.591639,39.606805],[-94.591674,39.603018],[-94.591638,39.602889],[-94.591566,39.602624],[-94.591606,39.602508],[-94.591651,39.602383],[-94.591601,39.602123],[-94.591485,39.601518],[-94.591307,39.601522],[-94.591043,39.601529],[-94.589633,39.601585],[-94.588196,39.601643],[-94.586846,39.601697],[-94.586884,39.603137],[-94.586922,39.604547],[-94.586916,39.605468],[-94.586915,39.605572],[-94.586898,39.608578],[-94.586897,39.608647],[-94.586895,39.609056],[-94.58689,39.609673],[-94.586923,39.609733],[-94.586943,39.60987],[-94.586938,39.610283],[-94.586917,39.612146],[-94.586911,39.612767],[-94.586886,39.614453],[-94.586879,39.615008],[-94.586883,39.615746],[-94.586868,39.616134],[-94.586838,39.616291],[-94.586766,39.61653],[-94.586661,39.616818],[-94.5866,39.617045],[-94.586594,39.617072],[-94.586574,39.617166],[-94.586554,39.617339],[-94.58654,39.618554],[-94.586542,39.619467],[-94.586546,39.620461],[-94.586543,39.621154],[-94.588455,39.621158],[-94.593124,39.621169],[-94.593629,39.621191],[-94.593726,39.621189],[-94.594191,39.621181],[-94.596104,39.621152],[-94.596158,39.621326],[-94.596212,39.621424],[-94.596255,39.621499],[-94.596492,39.621918],[-94.596695,39.62216],[-94.596744,39.622219],[-94.5969,39.622372],[-94.596997,39.622468],[-94.597011,39.62248],[-94.597278,39.622704],[-94.59738,39.622764],[-94.597515,39.622844],[-94.597659,39.622805],[-94.598037,39.6228],[-94.598698,39.6228],[-94.598866,39.622793],[-94.599032,39.622804],[-94.599261,39.622805],[-94.599261,39.622557],[-94.599261,39.622099],[-94.599448,39.622098],[-94.600842,39.622132],[-94.600878,39.622132],[-94.600919,39.622196],[-94.601045,39.622396],[-94.601215,39.622665],[-94.601259,39.622728],[-94.601397,39.622898],[-94.601515,39.623042],[-94.601923,39.623283],[-94.601939,39.623293],[-94.602112,39.623396],[-94.60210200000002,39.62322],[-94.602096,39.622413],[-94.60210400000001,39.622019],[-94.602101,39.621298],[-94.6021,39.620929],[-94.6021,39.620861],[-94.602119,39.619836],[-94.602116,39.61946],[-94.602115,39.619366],[-94.60211000000001,39.618881],[-94.602132,39.617362]]]},"properties":{"STATEFP":"29","PLACEFP":"28036","PLACENS":"02394938","GEOID":"2928036","GEOIDFQ":"1600000US2928036","NAME":"Gower","NAMELSAD":"Gower city","LSAD":"25","CLASSFP":"C1","PCICBSA":"N","MTFCC":"G4110","FUNCSTAT":"A","ALAND":2620282,"AWATER":0,"INTPTLAT":"+39.6131663","INTPTLON":"-094.5947800"}},
{"type":"Feature","geometry":{"type":"MultiPolygon","coordinates":[[[[-94.329302,39.532414],[-94.329303,39.532391],[-94.329186,39.532388],[-94.328147,39.532391],[-94.319899,39.532408],[-94.319868,39.533704],[-94.319846,39.534616],[-94.319824,39.535529],[-94.321367,39.535528],[-94.322208,39.535527],[-94.325566,39.535523],[-94.326406,39.535522],[-94.327303,39.53553],[-94.328238,39.53552],[-94.328197,39.538046],[-94.328567,39.537756],[-94.329078,39.5376],[-94.329096,39.537597],[-94.329088,39.538452],[-94.329087,39.538614],[-94.329161,39.538614],[-94.329163,39.538449],[-94.329178,39.537702],[-94.329179,39.537673],[-94.329184,39.537568],[-94.329183,39.537433],[-94.329192,39.536996],[-94.329202,39.536553],[-94.329212,39.536099],[-94.329225,39.535536],[-94.329265,39.533789],[-94.329302,39.532414]]],[[[-94.338466,39.544716],[-94.338466,39.543098],[-94.338465,39.542826],[-94.338422,39.542826],[-94.33816,39.542826],[-94.337686,39.542823],[-94.337442,39.542821],[-94.33694,39.54282],[-94.336702,39.542816],[-94.333098,39.542793],[-94.333023,39.542747],[-94.332865,39.542646],[-94.33275,39.542568],[-94.332638,39.542489],[-94.332528,39.542408],[-94.33242,39.542325],[-94.332315,39.54224],[-94.332212,39.542153],[-94.332157,39.542098],[-94.332106,39.542043],[-94.332056,39.541986],[-94.332009,39.541929],[-94.331963,39.54187],[-94.331919,39.541809],[-94.331877,39.541747],[-94.331839,39.541687],[-94.331792,39.541605],[-94.331764,39.541553],[-94.331736,39.541496],[-94.331707,39.541431],[-94.33168,39.541367],[-94.331656,39.5413],[-94.331633,39.541232],[-94.331614,39.541164],[-94.331604,39.541099],[-94.331588,39.540978],[-94.331574,39.540858],[-94.331563,39.540739],[-94.331555,39.540619],[-94.331549,39.5405],[-94.331546,39.54038],[-94.331545,39.54026],[-94.331547,39.540141],[-94.331552,39.540021],[-94.331558,39.539901],[-94.331568,39.539782],[-94.33158,39.539662],[-94.331595,39.539543],[-94.331612,39.539424],[-94.331632,39.539305],[-94.331655,39.539183],[-94.331525,39.539184],[-94.331327,39.539183],[-94.329257,39.539181],[-94.329152,39.539181],[-94.329044,39.53918],[-94.328162,39.53918],[-94.327085,39.539178],[-94.323241,39.539175],[-94.322567,39.53918],[-94.32213,39.539173],[-94.322101,39.540539],[-94.322076,39.54188],[-94.322071,39.541907],[-94.321758,39.541904],[-94.321051,39.541898],[-94.319843,39.54189],[-94.319672,39.541887],[-94.319655,39.54258],[-94.31965,39.542749],[-94.31965,39.542811],[-94.319638,39.5433],[-94.319612,39.544582],[-94.319612,39.544605],[-94.319578,39.546297],[-94.319573,39.546534],[-94.319557,39.547379],[-94.319541,39.54819],[-94.319541,39.54821],[-94.319537,39.548354],[-94.319506,39.549934],[-94.318619,39.549943],[-94.318524,39.550694],[-94.318533,39.551072],[-94.318555,39.551186],[-94.318538,39.551234],[-94.318535,39.551576],[-94.318534,39.551828],[-94.318517,39.552068],[-94.31846,39.552539],[-94.318368,39.552733],[-94.318296,39.552888],[-94.318186,39.553027],[-94.318178,39.553072],[-94.318402,39.553308],[-94.318622,39.553539],[-94.318931,39.553704],[-94.31921,39.553786],[-94.319228,39.553789],[-94.319427,39.553895],[-94.319383,39.556119],[-94.319379,39.55634],[-94.319361,39.557224],[-94.319361,39.557249],[-94.31933,39.557249],[-94.319254,39.557249],[-94.319222,39.557249],[-94.318842,39.557249],[-94.318023,39.557248],[-94.317655,39.557248],[-94.317451,39.557248],[-94.317403,39.557248],[-94.317296,39.557246],[-94.316842,39.557242],[-94.316639,39.55724],[-94.315733,39.55723],[-94.315554,39.557227],[-94.314336,39.557213],[-94.313663,39.557232],[-94.313532,39.557224],[-94.313075,39.557228],[-94.312302,39.55723],[-94.311218,39.557233],[-94.309263,39.557238],[-94.306621,39.557245],[-94.303855,39.557252],[-94.303398,39.557247],[-94.302513,39.557239],[-94.301444,39.557229],[-94.299398,39.557214],[-94.296749,39.557226],[-94.293878,39.55724],[-94.28944,39.557261],[-94.285852,39.557265],[-94.284813,39.557266],[-94.283543,39.557272],[-94.282667,39.557276],[-94.280769,39.557285],[-94.279797,39.557289],[-94.278511,39.557253],[-94.277982,39.55716],[-94.277866,39.55714],[-94.277364,39.556984],[-94.276893,39.556775],[-94.276758,39.556715],[-94.276228,39.556371],[-94.275625,39.555907],[-94.275046,39.555419],[-94.274362,39.554844],[-94.274147,39.554659],[-94.273679,39.554257],[-94.273247,39.553932],[-94.273009,39.553753],[-94.272704,39.553591],[-94.272082,39.553262],[-94.271381,39.552891],[-94.271269,39.552834],[-94.270997,39.552695],[-94.270425,39.552404],[-94.270259,39.552319],[-94.269873,39.552123],[-94.269762,39.552067],[-94.269597,39.551983],[-94.269651,39.551849],[-94.269816,39.551447],[-94.269871,39.551314],[-94.269966,39.55108],[-94.269987,39.551025],[-94.270335,39.550158],[-94.270451,39.549869],[-94.271732,39.546692],[-94.27193,39.546198],[-94.272257,39.546206],[-94.273346,39.546234],[-94.282752,39.54647],[-94.282866,39.542721],[-94.282003,39.542722],[-94.279416,39.542719],[-94.278136,39.542719],[-94.274562,39.542693],[-94.273676,39.542684],[-94.273345,39.542681],[-94.272924,39.542677],[-94.264161,39.542589],[-94.264011,39.549851],[-94.264108,39.549856],[-94.2644,39.549872],[-94.264498,39.549878],[-94.265297,39.550052],[-94.265317,39.550057],[-94.265524,39.550109],[-94.265402,39.551863],[-94.266169,39.551863],[-94.267319,39.552381],[-94.267184,39.554367],[-94.26741,39.554683],[-94.268467,39.554709],[-94.268455,39.554797],[-94.268428,39.554861],[-94.268348,39.555054],[-94.268322,39.555119],[-94.268167,39.555491],[-94.268107,39.555639],[-94.267723,39.556616],[-94.267576,39.556992],[-94.267562,39.557026],[-94.267522,39.557129],[-94.267509,39.557164],[-94.267847,39.557169],[-94.268686,39.55718],[-94.269584,39.557184],[-94.270229,39.557187],[-94.272281,39.557196],[-94.273181,39.5572],[-94.273136,39.560088],[-94.2731,39.562473],[-94.273098,39.562724],[-94.273095,39.563226],[-94.273088,39.564119],[-94.273084,39.564406],[-94.282041,39.564365],[-94.282673,39.564362],[-94.282638,39.565458],[-94.282431,39.571649],[-94.283742,39.571658],[-94.28426,39.571656],[-94.285149,39.571653],[-94.28975,39.571637],[-94.291581,39.571631],[-94.293525,39.571624],[-94.29936,39.571604],[-94.301305,39.571598],[-94.301553,39.571603],[-94.301994,39.571612],[-94.3023,39.571611],[-94.302549,39.571611],[-94.302855,39.57161],[-94.303768,39.571609],[-94.3039,39.571616],[-94.303936,39.571621],[-94.30676,39.571667],[-94.31148,39.5716],[-94.314076,39.571549],[-94.314667,39.571537],[-94.314678,39.571214],[-94.314893,39.564678],[-94.315905,39.56466],[-94.319286,39.564599],[-94.326343,39.564568],[-94.327978,39.564561],[-94.328211,39.564575],[-94.328433,39.564593],[-94.328433,39.56461],[-94.328341,39.568151],[-94.333179,39.568137],[-94.333146,39.567306],[-94.333056,39.565325],[-94.337602,39.565307],[-94.33802,39.565309],[-94.338029,39.564819],[-94.338037,39.564354],[-94.338064,39.562971],[-94.338077,39.562617],[-94.338109,39.561496],[-94.338128,39.560784],[-94.338055,39.560783],[-94.337966,39.560784],[-94.334607,39.56083],[-94.334629,39.560785],[-94.334669,39.560717],[-94.334764,39.560497],[-94.33547,39.559056],[-94.335655,39.558652],[-94.335946,39.558037],[-94.336001,39.557897],[-94.336275,39.557895],[-94.336328,39.557893],[-94.336587,39.557694],[-94.336525,39.557634],[-94.3365,39.557606],[-94.336466,39.557557],[-94.336442,39.557511],[-94.336419,39.557451],[-94.336407,39.557396],[-94.336404,39.557341],[-94.336404,39.557241],[-94.336424,39.557241],[-94.336464,39.557241],[-94.336638,39.55724],[-94.336734,39.55724],[-94.336916,39.55724],[-94.336906,39.557341],[-94.336865,39.559052],[-94.338094,39.559051],[-94.338177,39.559056],[-94.338184,39.558137],[-94.338187,39.557797],[-94.338187,39.557686],[-94.33819,39.557356],[-94.338191,39.557247],[-94.338194,39.557103],[-94.338198,39.55693],[-94.338212,39.556266],[-94.338217,39.556029],[-94.338235,39.55548],[-94.33823,39.555457],[-94.33824,39.555021],[-94.338246,39.554706],[-94.338249,39.554614],[-94.338253,39.554394],[-94.33826,39.554082],[-94.338267,39.553779],[-94.338273,39.553497],[-94.338279,39.553236],[-94.338286,39.5529],[-94.338293,39.55261],[-94.338299,39.552336],[-94.338299,39.552312],[-94.338317,39.551609],[-94.33832,39.551344],[-94.338325,39.551147],[-94.338337,39.550566],[-94.338349,39.550036],[-94.338362,39.549452],[-94.338374,39.548886],[-94.338386,39.548353],[-94.338389,39.548216],[-94.338392,39.548079],[-94.338403,39.547575],[-94.338415,39.547054],[-94.338419,39.546393],[-94.338425,39.546334],[-94.338432,39.54626],[-94.338434,39.546171],[-94.338435,39.546093],[-94.338466,39.544716]],[[-94.301439,39.559888],[-94.301433,39.560489],[-94.301422,39.561304],[-94.301391,39.563749],[-94.301388,39.564074],[-94.301381,39.564564],[-94.301374,39.565757],[-94.301371,39.566293],[-94.301372,39.568234],[-94.301346,39.569339],[-94.300707,39.569328],[-94.29664,39.569258],[-94.295918,39.567905],[-94.296008,39.56628],[-94.295534,39.565829],[-94.291969,39.562647],[-94.292037,39.561068],[-94.29664,39.563166],[-94.296437,39.559985],[-94.298603,39.55994],[-94.301439,39.559888]]]]},"properties":{"STATEFP":"29","PLACEFP":"40826","PLACENS":"02395639","GEOID":"2940826","GEOIDFQ":"1600000US2940826","NAME":"Lathrop","NAMELSAD":"Lathrop city","LSAD":"25","CLASSFP":"C1","PCICBSA":"N","MTFCC":"G4110","FUNCSTAT":"A","ALAND":10860846,"AWATER":0,"INTPTLAT":"+39.5618475","INTPTLON":"-094.3198525"}},
{"type":"Feature","geometry":{"type":"Polygon","coordinates":[[[-94.572621,39.470399],[-94.57262,39.468],[-94.567452,39.468025],[-94.567457,39.467703],[-94.56746,39.467465],[-94.566963,39.467484],[-94.566943,39.468985],[-94.566944,39.469264],[-94.56695,39.470101],[-94.566953,39.47038],[-94.566908,39.47038],[-94.56648,39.470377],[-94.566481,39.470296],[-94.566494,39.469256],[-94.566496,39.469153],[-94.566497,39.46905],[-94.566495,39.468887],[-94.566378,39.468886],[-94.566186,39.468885],[-94.56587,39.468885],[-94.565644,39.468882],[-94.564966,39.468875],[-94.564741,39.468873],[-94.564734,39.469113],[-94.564725,39.469512],[-94.564722,39.469833],[-94.56472,39.470074],[-94.564719,39.470139],[-94.564718,39.470261],[-94.564718,39.470334],[-94.564719,39.4704],[-94.564719,39.470427],[-94.564719,39.470511],[-94.56472,39.470539],[-94.564642,39.470538],[-94.564409,39.470537],[-94.564332,39.470537],[-94.564358,39.470503],[-94.564393,39.470413],[-94.564402,39.470399],[-94.564426,39.470368],[-94.563585,39.470381],[-94.563343,39.470386],[-94.561062,39.470406],[-94.560835,39.470409],[-94.560221,39.470416],[-94.5602,39.470031],[-94.560194,39.469907],[-94.560073,39.469914],[-94.559521,39.469941],[-94.559332,39.46995],[-94.559336,39.470044],[-94.559339,39.470116],[-94.559356,39.470501],[-94.559368,39.470769],[-94.55938,39.471027],[-94.559929,39.471019],[-94.560199,39.471016],[-94.560198,39.471193],[-94.560197,39.471419],[-94.560187,39.471724],[-94.560182,39.471901],[-94.560216,39.473214],[-94.560139,39.475429],[-94.560127,39.475783],[-94.56074,39.475791],[-94.56074,39.477358],[-94.557028,39.477358],[-94.556918,39.475765],[-94.55417,39.475762],[-94.55161,39.475761],[-94.55064,39.475765],[-94.550631,39.476175],[-94.550629,39.476291],[-94.550623,39.477405],[-94.550621,39.477816],[-94.550623,39.478068],[-94.550626,39.478291],[-94.550633,39.478678],[-94.550642,39.478824],[-94.550645,39.478865],[-94.550633,39.479076],[-94.550634,39.479243],[-94.550633,39.479274],[-94.550632,39.479392],[-94.550652,39.47987],[-94.550661,39.480069],[-94.550704,39.480155],[-94.550878,39.480465],[-94.550961,39.480612],[-94.551168,39.480831],[-94.551354,39.480965],[-94.55162,39.481106],[-94.551951,39.481234],[-94.551997,39.481252],[-94.552385,39.481361],[-94.552711,39.481356],[-94.5535,39.481344],[-94.553689,39.481341],[-94.553946,39.481338],[-94.554015,39.481336],[-94.555628,39.481325],[-94.556338,39.481321],[-94.557081,39.481315],[-94.557058,39.482276],[-94.556499,39.48229],[-94.556512,39.482795],[-94.556135,39.482806],[-94.55613,39.483728],[-94.560171,39.483684],[-94.560233,39.481289],[-94.56047,39.481289],[-94.561254,39.481288],[-94.562022,39.48129],[-94.562084,39.48129],[-94.562083,39.481015],[-94.562072,39.480658],[-94.562065,39.480423],[-94.563485,39.480423],[-94.563489,39.480661],[-94.563492,39.480776],[-94.563501,39.481293],[-94.563723,39.481293],[-94.563775,39.481293],[-94.564392,39.481282],[-94.564615,39.481279],[-94.564665,39.481244],[-94.564704,39.48121],[-94.564711,39.481189],[-94.564785,39.48099],[-94.564788,39.480798],[-94.564791,39.480664],[-94.564789,39.480363],[-94.564787,39.479846],[-94.564778,39.479463],[-94.56477,39.479151],[-94.565494,39.479155],[-94.567397,39.479162],[-94.567395,39.481279],[-94.567494,39.481279],[-94.568174,39.481288],[-94.568768,39.481296],[-94.568907,39.481298],[-94.569324,39.481305],[-94.569463,39.481308],[-94.569442,39.481163],[-94.569383,39.480738],[-94.569381,39.480728],[-94.569352,39.480585],[-94.569303,39.48034],[-94.569289,39.480271],[-94.569165,39.479785],[-94.569109,39.479619],[-94.56903,39.479384],[-94.569014,39.479338],[-94.568983,39.479258],[-94.568839,39.478881],[-94.568792,39.478756],[-94.568923,39.478734],[-94.569065,39.478712],[-94.568973,39.478474],[-94.568926,39.47835],[-94.568775,39.478021],[-94.568324,39.477034],[-94.568248,39.476867],[-94.56807,39.476863],[-94.567917,39.476462],[-94.567787,39.47612],[-94.567673,39.475739],[-94.567592,39.475435],[-94.567568,39.475227],[-94.567525,39.474854],[-94.567521,39.474801],[-94.567857,39.474805],[-94.568401,39.474812],[-94.568406,39.474639],[-94.568408,39.474345],[-94.568412,39.474009],[-94.568768,39.474027],[-94.569508,39.47402],[-94.570104,39.474015],[-94.570094,39.471708],[-94.570094,39.471586],[-94.570093,39.471465],[-94.570092,39.471319],[-94.57004,39.471297],[-94.569999,39.471256],[-94.569957,39.471196],[-94.569926,39.471038],[-94.569842,39.470954],[-94.569739,39.470876],[-94.569624,39.470394],[-94.569794,39.470396],[-94.569852,39.4704],[-94.56991,39.470398],[-94.570471,39.470405],[-94.570591,39.470407],[-94.570987,39.470412],[-94.572621,39.470399]]]},"properties":{"STATEFP":"29","PLACEFP":"73852","PLACENS":"02397053","GEOID":"2973852","GEOIDFQ":"1600000US2973852","NAME":"Trimble","NAMELSAD":"Trimble city","LSAD":"25","CLASSFP":"C1","PCICBSA":"N","MTFCC":"G4110","FUNCSTAT":"A","ALAND":1549407,"AWATER":0,"INTPTLAT":"+39.4760849","INTPTLON":"-094.5619477"}},
{"type":"Feature","geometry":{"type":"Polygon","coordinates":[[[-94.35337,39.747282],[-94.35337,39.747221],[-94.355045,39.747177],[-94.355241,39.747175],[-94.355828,39.74717100000001],[-94.356025,39.74717],[-94.35613,39.747169],[-94.35643,39.747167],[-94.356532,39.747167],[-94.357597,39.747167],[-94.357909,39.747163],[-94.358633,39.747156],[-94.359145,39.747156],[-94.36088000000001,39.747156],[-94.362337,39.747148],[-94.362346,39.746956],[-94.362355,39.746756],[-94.36233,39.744186],[-94.362318,39.743453],[-94.357345,39.743437],[-94.356872,39.743446],[-94.356727,39.743461],[-94.356532,39.74347],[-94.356533,39.743518],[-94.356542,39.743984],[-94.35655,39.744413],[-94.35655,39.744459],[-94.355906,39.744468],[-94.35512,39.744479],[-94.353975,39.744495],[-94.353332,39.744504],[-94.353339,39.745047],[-94.35336,39.746677],[-94.353368,39.747221],[-94.35337,39.747282]]]},"properties":{"STATEFP":"29","PLACEFP":"55352","PLACENS":"02396091","GEOID":"2955352","GEOIDFQ":"1600000US2955352","NAME":"Osborn","NAMELSAD":"Osborn city","LSAD":"25","CLASSFP":"C1","PCICBSA":"N","MTFCC":"G4110","FUNCSTAT":"A","ALAND":1475129,"AWATER":375,"INTPTLAT":"+39.7498506","INTPTLON":"-094.3569018"}},
{"type":"Feature","geometry":{"type":"Polygon","coordinates":[[[-94.561052,39.455908],[-94.56105,39.455908],[-94.56085,39.455912],[-94.561052,39.455908]]]},"properties":{"STATEFP":"29","PLACEFP":"68420","PLACENS":"02395903","GEOID":"2968420","GEOIDFQ":"1600000US2968420","NAME":"Smithville","NAMELSAD":"Smithville city","LSAD":"25","CLASSFP":"C1","PCICBSA":"N","MTFCC":"G4110","FUNCSTAT":"A","ALAND":41844520,"AWATER":278220,"INTPTLAT":"+39.3968687","INTPTLON":"-094.5709873"}},
{"type":"Feature","geometry":{"type":"Polygon","coordinates":[[[-94.569227,39.531733],[-94.569209,39.53165],[-94.569182,39.531589],[-94.569057,39.531431],[-94.568888,39.531281],[-94.568834,39.531219],[-94.568785,39.531144],[-94.568717,39.531014],[-94.568664,39.530928],[-94.56861,39.530863],[-94.568383,39.530682],[-94.568325,39.530617],[-94.568298,39.530572],[-94.568164,39.530439],[-94.568137,39.530391],[-94.568079,39.530333],[-94.568012,39.530309],[-94.567853,39.530293],[-94.567711,39.530303],[-94.567478,39.530347],[-94.567277,39.530374],[-94.567181,39.530367],[-94.567135,39.53035],[-94.567054,39.530306],[-94.566988,39.530248],[-94.566769,39.529991],[-94.566751,39.529957],[-94.566697,39.529909],[-94.566706,39.529818],[-94.566749,39.529744],[-94.566794,39.529709],[-94.566935,39.529668],[-94.567152,39.529636],[-94.56721,39.529619],[-94.567325,39.529556],[-94.567457,39.529442],[-94.567704,39.529157],[-94.567646,39.52916],[-94.567265,39.529169],[-94.56704,39.529169],[-94.565626,39.529173],[-94.565049,39.529169],[-94.564513,39.529167],[-94.564423,39.529159],[-94.564389,39.529146],[-94.564327,39.529123],[-94.564245,39.529112],[-94.563186,39.529099],[-94.561962,39.529086],[-94.560742,39.52908],[-94.559564,39.529065],[-94.558882,39.529057],[-94.558357,39.52906],[-94.557245,39.529066],[-94.557166,39.535271],[-94.557098,39.535339],[-94.556962,39.535458],[-94.556842,39.535612],[-94.556672,39.535816],[-94.556349,39.535986],[-94.556128,39.536122],[-94.555838,39.536207],[-94.555617,39.536241],[-94.555464,39.536275],[-94.555362,39.536326],[-94.55531,39.536412],[-94.555327,39.536565],[-94.55531,39.536616],[-94.555123,39.536718],[-94.555038,39.536786],[-94.5548,39.536922],[-94.55463,39.537024],[-94.554459,39.537229],[-94.554306,39.537348],[-94.553915,39.537433],[-94.553813,39.537722],[-94.553472,39.538029],[-94.553319,39.538131],[-94.553183,39.538335],[-94.553098,39.53842],[-94.55291,39.538522],[-94.552859,39.538658],[-94.552927,39.538846],[-94.552996,39.539135],[-94.553591,39.539135],[-94.564312,39.539242],[-94.564416,39.539244],[-94.564377,39.539306],[-94.564333,39.539354],[-94.564312,39.539361],[-94.564311,39.539527],[-94.564311,39.539732],[-94.564309,39.540025],[-94.564308,39.540191],[-94.565813,39.540204],[-94.565779,39.539935],[-94.565438,39.539407],[-94.564834,39.538655],[-94.564914,39.538631],[-94.565162,39.538616],[-94.565224,39.538561],[-94.565268,39.538533],[-94.565622,39.538353],[-94.565701,39.538305],[-94.565834,39.538198],[-94.565889,39.538115],[-94.565926,39.538043],[-94.565947,39.537926],[-94.565947,39.537885],[-94.565927,39.537797],[-94.565923,39.537655],[-94.565888,39.537573],[-94.565838,39.537487],[-94.56582,39.537398],[-94.56582,39.537336],[-94.565837,39.537281],[-94.565881,39.537233],[-94.565996,39.537153],[-94.566076,39.537067],[-94.566102,39.53704],[-94.566137,39.536957],[-94.566132,39.536885],[-94.566109,39.53684],[-94.566091,39.536751],[-94.566091,39.53671],[-94.566099,39.536676],[-94.566232,39.536555],[-94.566267,39.53651],[-94.566311,39.536434],[-94.566337,39.536407],[-94.566355,39.536352],[-94.566354,39.53627],[-94.566318,39.536098],[-94.566322,39.536019],[-94.566344,39.535967],[-94.56637,39.535933],[-94.566414,39.535892],[-94.566494,39.535853],[-94.566549,39.535841],[-94.566667,39.535846],[-94.566742,39.535863],[-94.566897,39.535873],[-94.56707,39.535827],[-94.567176,39.53582],[-94.567283,39.535854],[-94.567399,39.535881],[-94.567492,39.535875],[-94.567532,39.535863],[-94.56762,39.535798],[-94.567639,39.535737],[-94.567619,39.535595],[-94.567583,39.535509],[-94.567493,39.535427],[-94.56732,39.535284],[-94.567277,39.535171],[-94.567287,39.535098],[-94.567349,39.535036],[-94.567451,39.534967],[-94.567508,39.53494],[-94.567649,39.534812],[-94.567711,39.53474],[-94.567737,39.534692],[-94.567746,39.53465],[-94.56779,39.534547],[-94.567878,39.534451],[-94.567964,39.53437],[-94.568028,39.534265],[-94.56808,39.534223],[-94.568284,39.534099],[-94.568328,39.534061],[-94.568416,39.533968],[-94.568398,39.53386],[-94.568273,39.533728],[-94.568068,39.533619],[-94.567979,39.533585],[-94.567899,39.533523],[-94.567887,39.53346],[-94.567947,39.533389],[-94.568022,39.533338],[-94.568084,39.533317],[-94.568137,39.533289],[-94.568296,39.533179],[-94.568418,39.533114],[-94.568473,39.533095],[-94.568637,39.533073],[-94.568752,39.53305],[-94.568852,39.533017],[-94.568916,39.53298],[-94.568969,39.532936],[-94.568995,39.532853],[-94.568994,39.532668],[-94.568985,39.532633],[-94.568958,39.532578],[-94.568886,39.532517],[-94.568868,39.532483],[-94.568841,39.532388],[-94.56884,39.532242],[-94.568857,39.532146],[-94.56891,39.532043],[-94.568954,39.531988],[-94.569201,39.531767],[-94.569227,39.531733]]]},"properties":{"STATEFP":"29","PLACEFP":"28882","PLACENS":"02806393","GEOID":"2928882","GEOIDFQ":"1600000US2928882","NAME":"Grayson","NAMELSAD":"Grayson CDP","LSAD":"57","CLASSFP":"U1","PCICBSA":"N","MTFCC":"G4210","FUNCSTAT":"S","ALAND":1086386,"AWATER":0,"INTPTLAT":"+39.5343054","INTPTLON":"-094.5617773"}},
{"type":"Feature","geometry":{"type":"Polygon","coordinates":[[[-94.328069,39.478715],[-94.328071,39.478259],[-94.327983,39.477986],[-94.327746,39.47762],[-94.323683,39.477474],[-94.323704,39.473881],[-94.322789,39.473875],[-94.322243,39.473873],[-94.32146,39.473891],[-94.321277,39.473932],[-94.321108,39.47394],[-94.320787,39.473935],[-94.320416,39.473994],[-94.320255,39.47398],[-94.320113,39.473918],[-94.320041,39.47384],[-94.319949,39.473708],[-94.319927,39.473599],[-94.319907,39.473356],[-94.31985,39.473238],[-94.319739,39.473113],[-94.319717,39.473088],[-94.319504,39.472966],[-94.319283,39.472838],[-94.319191,39.472734],[-94.319189,39.472612],[-94.319285,39.472517],[-94.319425,39.472358],[-94.319476,39.472282],[-94.319472,39.472135],[-94.319455,39.471956],[-94.319393,39.471875],[-94.319286,39.471807],[-94.319393,39.470666],[-94.31861,39.470598],[-94.314328,39.470541],[-94.313868,39.471221],[-94.312778,39.473031],[-94.312481,39.473477],[-94.311804,39.474521],[-94.311049,39.47572],[-94.310665,39.476351],[-94.310317,39.476923],[-94.309955,39.477448],[-94.308507,39.479744],[-94.307757,39.481003],[-94.307637,39.481179],[-94.307151,39.481876],[-94.30644,39.48298],[-94.30587,39.483853],[-94.305668,39.484239],[-94.305599,39.484338],[-94.305423,39.484589],[-94.305393,39.484633],[-94.305053,39.485176],[-94.304578,39.485988],[-94.304273,39.486473],[-94.301458,39.49095],[-94.30139,39.491043],[-94.300979,39.491682],[-94.300847,39.491881],[-94.303549,39.491855],[-94.308597,39.491865],[-94.310609,39.491868],[-94.311184,39.491868],[-94.314876,39.491853],[-94.315029,39.491882],[-94.316019,39.491922],[-94.316233,39.491899],[-94.31631,39.491862],[-94.320709,39.491857],[-94.320772,39.494207],[-94.326982,39.494344],[-94.326932,39.49307],[-94.326925,39.4929],[-94.326916,39.492746],[-94.326884,39.492141],[-94.326863,39.491777],[-94.326846,39.491455],[-94.326771,39.490094],[-94.326768,39.490036],[-94.326653,39.488295],[-94.326649,39.48814],[-94.326625,39.487331],[-94.326635,39.486542],[-94.326661,39.486167],[-94.326667,39.486077],[-94.326682,39.486014],[-94.326689,39.485988],[-94.326743,39.485763],[-94.326936,39.485399],[-94.327169,39.485],[-94.327278,39.484798],[-94.327486,39.484413],[-94.327877,39.483722],[-94.327934,39.483483],[-94.327964,39.482695],[-94.327993,39.481978],[-94.328013,39.480596],[-94.328016,39.480467],[-94.328023,39.480091],[-94.328057,39.479065],[-94.328069,39.478715]]]},"properties":{"STATEFP":"29","PLACEFP":"39852","PLACENS":"02806395","GEOID":"2939852","GEOIDFQ":"1600000US2939852","NAME":"Lake Arrowhead","NAMELSAD":"Lake Arrowhead CDP","LSAD":"57","CLASSFP":"U1","PCICBSA":"N","MTFCC":"G4210","FUNCSTAT":"S","ALAND":3326537,"AWATER":459261,"INTPTLAT":"+39.4840567","INTPTLON":"-094.3172051"}}
]}