{"type":"FeatureCollection", "features": [
{"type":"Feature","geometry":{"type":"MultiPolygon","coordinates":[[[[-94.35221613922245,39.747241921033634],[-94.352566,39.747262],[-94.35316,39.747306],[-94.35337,39.747282],[-94.35337,39.747238292445296],[-94.35221613922245,39.747241921033634]]],[[[-94.35374789942036,39.74721107308986],[-94.355045,39.747177],[-94.355241,39.747175],[-94.355828,39.747171],[-94.356025,39.74717],[-94.35613,39.747169],[-94.35643,39.747167],[-94.356532,39.747167],[-94.35678608223667,39.747167],[-94.3567574374424,39.7444171045216],[-94.3537974364701,39.74442710455],[-94.35374789942036,39.74721107308986]]],[[[-94.36590253600424,39.74737337840259],[-94.36648,39.747374],[-94.366572,39.747369],[-94.367064,39.747382],[-94.367264,39.747384],[-94.367635,39.747385],[-94.367637,39.747385],[-94.369116,39.747387],[-94.36921,39.747391],[-94.370594,39.7474],[-94.370596,39.7474],[-94.3739,39.747418],[-94.37465,39.747414],[-94.374736,39.747423],[-94.37522,39.747402],[-94.375232,39.747403],[-94.376001,39.747386],[-94.37603,39.747385],[-94.377653,39.747375],[-94.378428,39.747372],[-94.378901,39.747371],[-94.379227,39.747365],[-94.379391,39.747362],[-94.37986,39.747354],[-94.379883,39.747353],[-94.380048,39.747351],[-94.380085,39.747351],[-94.381019,39.747344],[-94.383933,39.747324],[-94.3849,39.747318],[-94.386618,39.747306],[-94.386701,39.747305],[-94.389303,39.74727],[-94.389305,39.747269],[-94.390217,39.747261],[-94.39178,39.747247],[-94.393183,39.747228],[-94.39445,39.74724],[-94.396155,39.747269],[-94.396641,39.747271],[-94.398976,39.747288],[-94.399118,39.747291],[-94.39912,39.747291],[-94.400208,39.747313],[-94.40081,39.747319],[-94.40082,39.747319],[-94.401255,39.747316],[-94.401274,39.747316],[-94.401858,39.747326],[-94.402682,39.747357],[-94.402905,39.747364],[-94.403899,39.747377],[-94.404123,39.74738],[-94.405503,39.747378],[-94.405505,39.747379],[-94.405629,39.747379],[-94.407848,39.747409],[-94.408874,39.747411],[-94.410886,39.747433],[-94.41143,39.747437],[-94.41243,39.747437],[-94.414351,39.747452],[-94.41435,39.747452],[-94.417126,39.747473],[-94.419427,39.747466],[-94.421051,39.747461],[-94.421051,39.74746],[-94.421113,39.74746],[-94.4213,39.74746],[-94.421363,39.74746],[-94.421618,39.74746],[-94.421648,39.747461],[-94.426143,39.747446],[-94.426261,39.747446],[-94.427832,39.747462],[-94.427834,39.747463],[-94.430531,39.747447],[-94.430651,39.747448],[-94.430653,39.747448],[-94.431305,39.747454],[-94.432472,39.747474],[-94.432619,39.747509],[-94.432743,39.747522],[-94.432959,39.747538],[-94.43368,39.74755],[-94.439096,39.747603],[-94.441441,39.747642],[-94.441442,39.747642],[-94.441442,39.747641],[-94.441442,39.74764],[-94.441442,39.747639],[-94.441442,39.747638],[-94.441442,39.747637],[-94.441442,39.747636],[-94.441442,39.747635],[-94.441442,39.747634],[-94.441442,39.747633],[-94.441442,39.747632],[-94.441442,39.747631],[-94.441442,39.74763],[-94.442519,39.747629],[-94.443234,39.74762],[-94.444067,39.747638],[-94.444751,39.747653],[-94.446424,39.747653],[-94.449816,39.747697],[-94.451413,39.747694],[-94.451465,39.747694],[-94.451531,39.747696],[-94.45192,39.747706],[-94.452828,39.747707],[-94.452988,39.747677],[-94.453047,39.74768],[-94.453734,39.747697],[-94.454274,39.747711],[-94.455898,39.747712],[-94.4562,39.747705],[-94.457722,39.747688],[-94.457981,39.747686],[-94.4602,39.747704],[-94.460688,39.747678],[-94.46121,39.747674],[-94.461847,39.747689],[-94.463803,39.747666],[-94.464959,39.74765],[-94.466786,39.747643],[-94.466798,39.747643],[-94.467794,39.747635],[-94.469867,39.747632],[-94.469883,39.747632],[-94.470035,39.747632],[-94.470082,39.747633],[-94.470451,39.747639],[-94.471982,39.747671],[-94.472007,39.747671],[-94.472789,39.747675],[-94.473544,39.747682],[-94.473546,39.747683],[-94.473649,39.747687],[-94.473817,39.747691],[-94.473961,39.747692],[-94.474753,39.747702],[-94.475134,39.7477],[-94.475186,39.7477],[-94.475451,39.747706],[-94.476765,39.74772],[-94.476833,39.747722],[-94.477418,39.747727],[-94.478346,39.747745],[-94.478423,39.747747],[-94.478427,39.747779],[-94.479172,39.747786],[-94.479833,39.747785],[-94.479833,39.747735],[-94.481812,39.747733],[-94.4846,39.747729],[-94.484601,39.747729],[-94.486154,39.747729],[-94.487116,39.747715],[-94.48711,39.747689],[-94.488488,39.747635],[-94.488749,39.747648],[-94.489145,39.747644],[-94.490602,39.747628],[-94.490656,39.747631],[-94.491775,39.747756],[-94.491785,39.747759],[-94.491795,39.747761],[-94.492373,39.747932],[-94.492446,39.747952],[-94.492453,39.747954],[-94.492673,39.747936],[-94.49275,39.747931],[-94.492759,39.747931],[-94.493151,39.7479],[-94.494357,39.747808],[-94.49476,39.747778],[-94.495107,39.747751],[-94.495938,39.747688],[-94.496029,39.747681],[-94.496362,39.747655],[-94.496583,39.747664],[-94.496591,39.747664],[-94.498778,39.74774],[-94.498891,39.747744],[-94.499702,39.747772],[-94.500231,39.747792],[-94.502079,39.747791],[-94.502254,39.747791],[-94.502782,39.747791],[-94.502958,39.747791],[-94.50298,39.747791],[-94.503048,39.747791],[-94.503071,39.747791],[-94.503157,39.747791],[-94.503418,39.747791],[-94.503505,39.747791],[-94.503575,39.747791],[-94.503788,39.747791],[-94.503859,39.747792],[-94.503903,39.747792],[-94.504037,39.747792],[-94.504082,39.747792],[-94.504124,39.747792],[-94.504253,39.747792],[-94.504296,39.747792],[-94.504373,39.747792],[-94.504604,39.747792],[-94.504681,39.747792],[-94.504823,39.747792],[-94.505249,39.747792],[-94.50539,39.747793],[-94.50556,39.747793],[-94.50607,39.747793],[-94.50624,39.747793],[-94.506792,39.747793],[-94.506841,39.747793],[-94.507195,39.747793],[-94.50794,39.747794],[-94.51227,39.747796],[-94.51245,39.747795],[-94.512627,39.747795],[-94.512629,39.747796],[-94.517673,39.747776],[-94.519328,39.74779],[-94.522054,39.747784],[-94.522055,39.747783],[-94.523437,39.747779],[-94.525222,39.747785],[-94.526415,39.74777],[-94.526485,39.747772],[-94.526647,39.747773],[-94.528655,39.747742],[-94.529556,39.747759],[-94.53065,39.74774],[-94.531359,39.747747],[-94.533133,39.747728],[-94.537627,39.747706],[-94.53822,39.747703],[-94.539545,39.747738],[-94.541991,39.747715],[-94.544211,39.747699],[-94.544256,39.747698],[-94.544348,39.747683],[-94.544446,39.747643],[-94.544458,39.747627],[-94.544488,39.74759],[-94.544503,39.747513],[-94.544509,39.747467],[-94.5445,39.747344],[-94.544503,39.747343],[-94.544556,39.747341],[-94.553634,39.747222],[-94.562926,39.747144],[-94.563773,39.747136],[-94.564719,39.747128],[-94.566316,39.747121],[-94.567158,39.747118],[-94.567164,39.747118],[-94.567471,39.747118],[-94.568393,39.747118],[-94.56868,39.747119],[-94.568701,39.747119],[-94.569318,39.747119],[-94.571171,39.747119],[-94.571621,39.747119],[-94.571789,39.74713],[-94.571891,39.747139],[-94.572008,39.747169],[-94.572129,39.747198],[-94.572286,39.747265],[-94.572302,39.747279],[-94.572924,39.747277],[-94.572985,39.747277],[-94.573967,39.747277],[-94.577994,39.747278],[-94.578505,39.747278],[-94.579532,39.747275],[-94.579544,39.747275],[-94.57959,39.747275],[-94.580936,39.747271],[-94.581399,39.747271],[-94.596138,39.747237],[-94.596964,39.747235],[-94.598355,39.747232],[-94.598365,39.747232],[-94.602257,39.747195],[-94.602268,39.746527],[-94.602268,39.745285],[-94.602251,39.744404],[-94.60228,39.743031],[-94.602284,39.741872],[-94.602284,39.741309],[-94.602286,39.740244],[-94.602287,39.740206],[-94.602289,39.739596],[-94.602309,39.73855],[-94.602343,39.737466],[-94.602344,39.737374],[-94.602358,39.735977],[-94.602376,39.734322],[-94.602386,39.733749],[-94.602395,39.733175],[-94.602398,39.73296],[-94.602406,39.731957],[-94.602398,39.729558],[-94.602392,39.729265],[-94.602369,39.728165],[-94.602367,39.727722],[-94.602361,39.726643],[-94.602413,39.724274],[-94.602427,39.722846],[-94.60243,39.722036],[-94.602405,39.712479],[-94.602396,39.711506],[-94.602378,39.710525],[-94.602316,39.703906],[-94.602305,39.702728],[-94.602197,39.691624],[-94.602196,39.691496],[-94.602196,39.691367],[-94.602167,39.689066],[-94.602247,39.672885],[-94.602258,39.670376],[-94.60227,39.667867],[-94.602271,39.667324],[-94.602297,39.653177],[-94.60225,39.64646],[-94.602246,39.645911],[-94.602244,39.645635],[-94.602243,39.64551],[-94.60221,39.6455],[-94.602071,39.645426],[-94.601759,39.645208],[-94.601662,39.645109],[-94.601753,39.644995],[-94.601847,39.644901],[-94.60194,39.644793],[-94.602063,39.644609],[-94.602121,39.644501],[-94.60217,39.644382],[-94.602193,39.64423],[-94.602218,39.64402],[-94.602227,39.64375],[-94.602218,39.642961],[-94.602205,39.640386],[-94.602193,39.639147],[-94.6022,39.638015],[-94.602197,39.637083],[-94.602182,39.635844],[-94.602182,39.635843],[-94.602162,39.634152],[-94.602163,39.633744],[-94.602167,39.632551],[-94.602162,39.632057],[-94.602142,39.629756],[-94.602149,39.628512],[-94.602142,39.627161],[-94.602143,39.626253],[-94.602143,39.625881],[-94.602138,39.625711],[-94.60212,39.625005],[-94.60212,39.62496],[-94.602129,39.623693],[-94.602112,39.623396],[-94.602102,39.62322],[-94.6021,39.622413],[-94.602104,39.622019],[-94.602101,39.621298],[-94.6021,39.620929],[-94.6021,39.620861],[-94.602119,39.619836],[-94.602116,39.61946],[-94.602115,39.619366],[-94.60211,39.618881],[-94.602132,39.617362],[-94.60212,39.616743],[-94.602112,39.615713],[-94.602102,39.615216],[-94.602104,39.61424],[-94.602105,39.614097],[-94.602102,39.613677],[-94.602097,39.613249],[-94.602089,39.612804],[-94.602075,39.611973],[-94.602061,39.611806],[-94.601998,39.611012],[-94.601925,39.61007],[-94.601915,39.609943],[-94.60186,39.609098],[-94.601814,39.608574],[-94.60179,39.608306],[-94.601716,39.607028],[-94.60163,39.605612],[-94.601629,39.605609],[-94.601617,39.605304],[-94.601588,39.604973],[-94.601314,39.603085],[-94.601315,39.603084],[-94.601335,39.602595],[-94.60134,39.602408],[-94.601371,39.601854],[-94.601363,39.601626],[-94.601342,39.601048],[-94.601287,39.600091],[-94.601166,39.598453],[-94.601138,39.597667],[-94.601138,39.597347],[-94.601157,39.59705],[-94.601144,39.596781],[-94.601153,39.595073],[-94.601157,39.594875],[-94.601148,39.593605],[-94.601161,39.593034],[-94.601163,39.592117],[-94.601178,39.591182],[-94.60117,39.589371],[-94.601198,39.586878],[-94.601194,39.586274],[-94.601211,39.585295],[-94.6012,39.584501],[-94.601191,39.583843],[-94.601205,39.582662],[-94.601237,39.579929],[-94.601238,39.579822],[-94.601254,39.578121],[-94.601253,39.577178],[-94.601269,39.576161],[-94.601265,39.575846],[-94.60127,39.574817],[-94.60126,39.574302],[-94.60128,39.573628],[-94.601284,39.572632],[-94.601283,39.572403],[-94.601282,39.572347],[-94.601282,39.572291],[-94.601277,39.571341],[-94.601284,39.569471],[-94.601292,39.568659],[-94.601288,39.568232],[-94.601288,39.56734],[-94.601289,39.566533],[-94.601276,39.566111],[-94.601283,39.565406],[-94.601283,39.56484],[-94.601268,39.563893],[-94.601273,39.563688],[-94.601284,39.563286],[-94.601278,39.562505],[-94.601278,39.561125],[-94.601265,39.560108],[-94.601252,39.558063],[-94.60125,39.557338],[-94.601232,39.555688],[-94.601231,39.55561],[-94.601264,39.553631],[-94.601273,39.552935],[-94.601273,39.552479],[-94.601273,39.552348],[-94.601273,39.552222],[-94.601276,39.551027],[-94.601278,39.550439],[-94.601264,39.548058],[-94.601261,39.546169],[-94.60126,39.545753],[-94.60125,39.544504],[-94.601242,39.544185],[-94.60125,39.543738],[-94.601255,39.542781],[-94.601252,39.541479],[-94.601251,39.541125],[-94.601243,39.540516],[-94.601243,39.540508],[-94.601232,39.539697],[-94.60122,39.538019],[-94.601222,39.536453],[-94.601219,39.534646],[-94.60122,39.534596],[-94.601219,39.534523],[-94.601217,39.534124],[-94.601223,39.532988],[-94.60129,39.532266],[-94.601287,39.532138],[-94.601251,39.530571],[-94.60125,39.530372],[-94.601243,39.530171],[-94.601206,39.527419],[-94.601202,39.527381],[-94.601203,39.527334],[-94.601182,39.526772],[-94.601177,39.526429],[-94.601183,39.525595],[-94.601181,39.525514],[-94.60117,39.52483],[-94.601175,39.524325],[-94.601189,39.522769],[-94.60119,39.522759],[-94.601179,39.522108],[-94.601196,39.521855],[-94.601211,39.520522],[-94.601258,39.516589],[-94.601258,39.516524],[-94.601268,39.515192],[-94.60126,39.513961],[-94.601255,39.511404],[-94.60125,39.510268],[-94.60125,39.509038],[-94.601242,39.507788],[-94.60123,39.504038],[-94.601226,39.502788],[-94.601219,39.502146],[-94.601199,39.500221],[-94.601193,39.49958],[-94.601195,39.499303],[-94.601198,39.499094],[-94.601197,39.499],[-94.6012,39.49887],[-94.601205,39.498474],[-94.601206,39.498384],[-94.601205,39.498198],[-94.601202,39.497738],[-94.6012,39.497263],[-94.601196,39.496358],[-94.601194,39.495899],[-94.601192,39.495636],[-94.601188,39.494847],[-94.601187,39.494585],[-94.601183,39.494147],[-94.601182,39.494107],[-94.601172,39.492981],[-94.601169,39.492676],[-94.601168,39.492504],[-94.601172,39.492199],[-94.601171,39.49219],[-94.601169,39.492166],[-94.601169,39.492158],[-94.601168,39.492149],[-94.601167,39.492125],[-94.601167,39.492117],[-94.601166,39.492108],[-94.601164,39.492081],[-94.601164,39.492072],[-94.601149,39.491857],[-94.601141,39.491658],[-94.601113,39.490857],[-94.601099,39.490416],[-94.601086,39.490003],[-94.60107,39.489494],[-94.601068,39.489455],[-94.601001,39.487932],[-94.601006,39.487814],[-94.601023,39.487417],[-94.601024,39.487267],[-94.601024,39.486965],[-94.601024,39.486059],[-94.601024,39.485757],[-94.601025,39.485557],[-94.601028,39.484957],[-94.601029,39.484757],[-94.60102,39.483937],[-94.601028,39.483486],[-94.601053,39.482243],[-94.60105050910488,39.48011162407634],[-94.5925874745813,39.4801070462449],[-94.5924974757863,39.4849370471937],[-94.5922974757606,39.4849370477504],[-94.5925474757772,39.4958570488942],[-94.5788874730826,39.495877049956],[-94.5788474729551,39.4995670506726],[-94.5695074703976,39.4995970511727],[-94.5600674675923,39.499627051853],[-94.5600574673999,39.4922570509466],[-94.5646874684902,39.4924470502547],[-94.5647874676551,39.4850470491411],[-94.5494174641019,39.4850670495406],[-94.5494174632598,39.4844570494292],[-94.5135274541426,39.4846270518628],[-94.5101574528534,39.4846470521814],[-94.508777452622,39.4846570523155],[-94.5060174524688,39.4846170526471],[-94.5006674502439,39.4845970529847],[-94.500747451052,39.4882670534701],[-94.5006774515271,39.4954470542033],[-94.5006674525546,39.5000170554111],[-94.5006374530004,39.5134370577012],[-94.4911474508882,39.5134370583098],[-94.4910074528005,39.5288070604298],[-94.4722174469968,39.5287170622129],[-94.47187744845,39.5486770651645],[-94.4763574502399,39.5486270652899],[-94.4764074499234,39.5505170654816],[-94.4786874511263,39.5505170646796],[-94.4786174522826,39.5578870658486],[-94.471687450284,39.5578570664029],[-94.4715274503366,39.5649270677792],[-94.466787448893,39.5649970679935],[-94.4666674496961,39.5658870678774],[-94.4602374476602,39.5658970687613],[-94.4600974484807,39.5721270697883],[-94.4522274460924,39.5721170704595],[-94.4519774479154,39.5867070723519],[-94.451987447635,39.5899570735809],[-94.4522074476863,39.5899670727649],[-94.4519874476896,39.5901670734704],[-94.4518074485844,39.601147075359],[-94.4473574877658,39.601204188659],[-94.4465972981246,39.6012139278654],[-94.4451374473193,39.6012270756814],[-94.4426074463377,39.601257075602],[-94.4332274432152,39.6013570758083],[-94.4332274432485,39.6013770759638],[-94.4330174432531,39.6013870764009],[-94.4329074456829,39.6159270782962],[-94.4292274436465,39.6159170787559],[-94.4229474427531,39.6158970796407],[-94.4128374396989,39.6158670797546],[-94.4125574413003,39.6304470823911],[-94.4125674406115,39.6304770825565],[-94.356007426347,39.6301870854469],[-94.3558874277474,39.644967088113],[-94.3556374287624,39.6596770905533],[-94.3581174291403,39.6596570903672],[-94.3653074314572,39.6595770895173],[-94.3653774307249,39.6595770900063],[-94.365227431925,39.6631770903458],[-94.365537432239,39.6679570915119],[-94.365697432056,39.6705770914226],[-94.3646974316757,39.6706470916528],[-94.3648274331033,39.6742770926673],[-94.3653074330226,39.6743270926295],[-94.36525743356,39.6817570935588],[-94.3652874335916,39.6853070945148],[-94.365287434522,39.6889270947106],[-94.3652174346945,39.6897270953003],[-94.3653174343572,39.6962770960767],[-94.3653474353221,39.7034370973331],[-94.3655674352393,39.7034770972265],[-94.365627435501,39.7065670973974],[-94.3655474365927,39.7079870984453],[-94.3655974362133,39.7142870992115],[-94.3656074366492,39.7178471000796],[-94.3654574376614,39.7215470998555],[-94.3655874382754,39.725287100866],[-94.3657174384327,39.7329171021041],[-94.3657774400891,39.7434271037713],[-94.3658374396399,39.7462471043127],[-94.3657974395385,39.7473471049406],[-94.36590253600424,39.74737337840259]]]]},"properties":{"PWSSNAME":"DeKalb Co. PWSD #1","PWSSID":1024191,"IPWS":"MO1024191","STATUS":"Active","COUNTY":"DeKalb","MDNRREG":"Kansas City","MDNRNUM":1,"SQMI":673.24460454,"ACRES":430877,"POP_SERVED":6000,"SCALE":24000,"COLOR":5,"YEAR_":1977,"LASTUPDATE":"2012/05/18","DB2GSE_ST_":0,"DB2GSE_Sde":0,"Shape__Area":2959262999.67188,"Shape__Length":398324.260143912},"id":28},
{"type":"Feature","geometry":{"type":"Polygon","coordinates":[[[-94.20701211247572,39.59953690783895],[-94.207011,39.599592],[-94.20701,39.599593],[-94.206907,39.604334],[-94.206796,39.610533],[-94.206795,39.610534],[-94.206782,39.610954],[-94.206748,39.61206],[-94.206693,39.614191],[-94.206634,39.61653],[-94.206606,39.618039],[-94.206612,39.61818],[-94.206603,39.618627],[-94.206596,39.618926],[-94.206588,39.619614],[-94.206566,39.621545],[-94.206509,39.623467],[-94.206528,39.624676],[-94.206516,39.625168],[-94.20651,39.625316],[-94.206497,39.625676],[-94.206491,39.626083],[-94.206524,39.626372],[-94.206545,39.626463],[-94.206614,39.62687],[-94.206674,39.627191],[-94.206669,39.62762],[-94.20666,39.627877],[-94.206661,39.628048],[-94.206645,39.628466],[-94.206638,39.628661],[-94.206577,39.629487],[-94.206567,39.629834],[-94.20656,39.630074],[-94.206535,39.632189],[-94.206528,39.633526],[-94.206528,39.633528],[-94.206515,39.635927],[-94.206497,39.638522],[-94.206494,39.638918],[-94.206491,39.639229],[-94.20648,39.639846],[-94.206474,39.640845],[-94.20648,39.643184],[-94.20648,39.643186],[-94.206376,39.647214],[-94.206101,39.657813],[-94.206095,39.658122],[-94.20617,39.658416],[-94.206386,39.659177],[-94.206367,39.660275],[-94.20638,39.660829],[-94.2064,39.660961],[-94.206436,39.661077],[-94.2065,39.661214],[-94.20657,39.66134],[-94.206604,39.661378],[-94.206552,39.661467],[-94.206479,39.661611],[-94.206427,39.661739],[-94.206395,39.661855],[-94.206376,39.66197],[-94.20637,39.662009],[-94.206362,39.662203],[-94.206356,39.662363],[-94.20635,39.663237],[-94.206338,39.66475],[-94.206326,39.665018],[-94.20631,39.66617],[-94.206303,39.667335],[-94.206282,39.669244],[-94.206268,39.670691],[-94.206248,39.671532],[-94.20624,39.672262],[-94.206239,39.672651],[-94.206231,39.673694],[-94.206224,39.673979],[-94.206199,39.674979],[-94.206185,39.676301],[-94.206181,39.676708],[-94.206157,39.677676],[-94.206154,39.678115],[-94.206144,39.679675],[-94.206124,39.680504],[-94.20612,39.680679],[-94.20612,39.68123],[-94.206114,39.682384],[-94.206116,39.68281],[-94.2061,39.683841],[-94.206094,39.684687],[-94.206092,39.684799],[-94.206077,39.68566],[-94.206078,39.686495],[-94.20607,39.687208],[-94.206058,39.687918],[-94.206024,39.689504],[-94.205975,39.692227],[-94.205958,39.693622],[-94.205953,39.694072],[-94.205912,39.695232],[-94.20585,39.698387],[-94.205847,39.698779],[-94.205832,39.701145],[-94.20583,39.701549],[-94.205818,39.702007],[-94.205814,39.702175],[-94.205802,39.702657],[-94.205757,39.704458],[-94.20576,39.704787],[-94.205775,39.710188],[-94.20577,39.712663],[-94.205766,39.712856],[-94.205756,39.713398],[-94.205734,39.714117],[-94.205734,39.714534],[-94.205739,39.71473],[-94.205766,39.715962],[-94.205767,39.716221],[-94.205768,39.716655],[-94.205782,39.721613],[-94.20577,39.723257],[-94.205773,39.723501],[-94.205778,39.723909],[-94.20579,39.724546],[-94.205787,39.725136],[-94.205787,39.725217],[-94.205762,39.727899],[-94.205766,39.729702],[-94.205776,39.729808],[-94.205799,39.73004],[-94.205874,39.730209],[-94.205806,39.730265],[-94.205776,39.730341],[-94.205776,39.730612],[-94.20579,39.730811],[-94.205797,39.73102],[-94.205834,39.731095],[-94.205854,39.73111],[-94.205849,39.737049],[-94.205866,39.739135],[-94.205883,39.739387],[-94.205884,39.739445],[-94.205884,39.73948],[-94.205881,39.73953],[-94.205878,39.73958],[-94.205963,39.745395],[-94.205961,39.745841],[-94.20738,39.745873],[-94.207389,39.745873],[-94.210101,39.745936],[-94.210465,39.745946],[-94.21061,39.745949],[-94.211045,39.745961],[-94.21119,39.745965],[-94.212063,39.745989],[-94.212548,39.746003],[-94.21271,39.746007],[-94.215301,39.746079],[-94.217473,39.746139],[-94.219961,39.746208],[-94.219965,39.746209],[-94.220006,39.746209],[-94.220283,39.746218],[-94.220974,39.746236],[-94.22119,39.746242],[-94.22228,39.746271],[-94.222554,39.746283],[-94.222693,39.746287],[-94.222721,39.74628],[-94.22294,39.746282],[-94.223607,39.74629],[-94.223771,39.746292],[-94.223829,39.746291],[-94.223887,39.746294],[-94.224089,39.746296],[-94.224522,39.746297],[-94.226602,39.746307],[-94.227193,39.74631],[-94.227296,39.746309],[-94.227436,39.746309],[-94.227856,39.746309],[-94.227997,39.746309],[-94.228024,39.746308],[-94.22831492568739,39.74630585909143],[-94.2206274003438,39.7461971128525],[-94.2209074000692,39.7352471112665],[-94.2193873997414,39.7352071110927],[-94.219437398358,39.7315471104667],[-94.2207173988513,39.731607110087],[-94.2267374012414,39.7317571103493],[-94.2295474014276,39.7317171097967],[-94.2309674021311,39.731747109724],[-94.2310074018927,39.7296171091574],[-94.234517403287,39.7296371097811],[-94.2345174020874,39.7282171095414],[-94.2380374031995,39.728257108546],[-94.2385574033579,39.7274271088309],[-94.2389274036048,39.7265071083468],[-94.2397674043256,39.7265371083854],[-94.2398274037619,39.7278171089142],[-94.2440974047891,39.7278171081481],[-94.2440874047854,39.7245971075234],[-94.2504474062236,39.7245671074453],[-94.2510574071776,39.7245671074639],[-94.2510274071539,39.7227071075967],[-94.2525574066842,39.7227271074477],[-94.2525274066607,39.7207071072531],[-94.2521074065321,39.7206771071207],[-94.2520674066923,39.7201871067894],[-94.25250740678,39.7201771065377],[-94.252547406915,39.7175371062906],[-94.2532374065254,39.7174971058032],[-94.2532174069243,39.7156571057271],[-94.2564574073631,39.7156571053863],[-94.2564374073014,39.717547105967],[-94.2557874078929,39.7175771062983],[-94.2557774074234,39.7202171068656],[-94.2545374069539,39.7202171068155],[-94.2545774078776,39.7226471071128],[-94.2555774078452,39.7230671067198],[-94.2566874082826,39.7246871076112],[-94.2552274077954,39.7246371073617],[-94.254807407244,39.7237471069017],[-94.2538474074481,39.7233071074254],[-94.2532574071155,39.7236071075076],[-94.253297407902,39.7246571070378],[-94.2531874084728,39.7337671092261],[-94.2554974085541,39.7338071090381],[-94.25546740857,39.7356071094596],[-94.2542574088547,39.7355371094523],[-94.2542374089059,39.7401271103118],[-94.2579874099284,39.7401171094479],[-94.2579174101951,39.7428071105106],[-94.2542174099485,39.7427371102402],[-94.25423259916732,39.74640269332937],[-94.254297,39.746403],[-94.254367,39.746404],[-94.254691,39.746406],[-94.255354,39.74641],[-94.255665,39.746413],[-94.25599,39.746416],[-94.256412,39.746426],[-94.256443,39.746427],[-94.256988,39.74643],[-94.25737,39.746429],[-94.257572,39.746429],[-94.257903,39.746431],[-94.258538,39.746434],[-94.262183,39.746435],[-94.26227,39.746443],[-94.263201,39.746484],[-94.263332,39.746489],[-94.263548,39.746472],[-94.272248,39.746666],[-94.272249,39.746666],[-94.273925,39.746704],[-94.273931,39.746704],[-94.281346,39.746873],[-94.282399,39.746909],[-94.28271,39.746916],[-94.282722,39.746917],[-94.290306,39.747075],[-94.291314,39.747105],[-94.292692,39.747142],[-94.293889,39.747162],[-94.293897,39.747162],[-94.297243,39.747207],[-94.297245,39.747208],[-94.297569,39.747211],[-94.299439,39.747254],[-94.299497,39.747252],[-94.299502,39.747252],[-94.299555,39.747256],[-94.30013,39.747269],[-94.301314,39.747267],[-94.302072,39.74728],[-94.305063,39.747331],[-94.306867,39.74736],[-94.308175,39.747366],[-94.308182,39.747367],[-94.309183,39.74739],[-94.309196,39.74739],[-94.309411,39.747394],[-94.310926,39.7474],[-94.311904,39.74742],[-94.311906,39.747421],[-94.314352,39.747473],[-94.3144,39.747474],[-94.314402,39.747474],[-94.315092,39.747481],[-94.315173,39.747482],[-94.316174,39.747491],[-94.31739,39.747477],[-94.317823,39.747484],[-94.31791,39.747491],[-94.317929,39.747492],[-94.31817,39.747514],[-94.318368,39.747507],[-94.318368,39.747506],[-94.318468,39.747503],[-94.318595,39.7475],[-94.318614,39.747498],[-94.318741,39.747489],[-94.319034,39.747465],[-94.319049,39.747464],[-94.320346,39.74739],[-94.321446,39.74729],[-94.321819,39.747268],[-94.32317,39.747192],[-94.323204,39.747191],[-94.323205,39.747191],[-94.328379,39.747167],[-94.330093,39.747156],[-94.330098,39.747156],[-94.331737,39.747148],[-94.333791,39.747125],[-94.333797,39.747124],[-94.334179,39.74712],[-94.335533,39.74712],[-94.336683,39.747112],[-94.337154,39.747112],[-94.337155,39.747113],[-94.337796,39.747115],[-94.338613,39.747129],[-94.340779,39.747142],[-94.342408,39.747159],[-94.342411,39.74716],[-94.342671,39.747163],[-94.343461,39.747175],[-94.343725,39.747179],[-94.34427,39.747187],[-94.344465,39.74719],[-94.344851,39.747192],[-94.345372,39.747201],[-94.345913,39.747203],[-94.345936,39.747204],[-94.346461,39.747219],[-94.346665,39.74722],[-94.350733,39.747146],[-94.351438,39.747198],[-94.351797,39.747219],[-94.351991,39.747229],[-94.35221613922245,39.747241921033634],[-94.35337,39.747238292445296],[-94.35337,39.747221],[-94.35374789942036,39.74721107308986],[-94.3537974364701,39.74442710455],[-94.3567574374424,39.7444171045216],[-94.35678608223667,39.747167],[-94.357597,39.747167],[-94.357909,39.747163],[-94.358633,39.747156],[-94.359145,39.747156],[-94.36088,39.747156],[-94.362337,39.747148],[-94.36551,39.747373],[-94.365551,39.747373],[-94.36590253600424,39.74737337840259],[-94.3657974395385,39.7473471049406],[-94.3658374396399,39.7462471043127],[-94.3657774400891,39.7434271037713],[-94.3657174384327,39.7329171021041],[-94.3655874382754,39.725287100866],[-94.3654574376614,39.7215470998555],[-94.3656074366492,39.7178471000796],[-94.3655974362133,39.7142870992115],[-94.3655474365927,39.7079870984453],[-94.365627435501,39.7065670973974],[-94.3655674352393,39.7034770972265],[-94.3653474353221,39.7034370973331],[-94.3653174343572,39.6962770960767],[-94.3652174346945,39.6897270953003],[-94.365287434522,39.6889270947106],[-94.3652874335916,39.6853070945148],[-94.36525743356,39.6817570935588],[-94.3653074330226,39.6743270926295],[-94.3648274331033,39.6742770926673],[-94.3646974316757,39.6706470916528],[-94.365697432056,39.6705770914226],[-94.365537432239,39.6679570915119],[-94.365227431925,39.6631770903458],[-94.3653774307249,39.6595770900063],[-94.3653074314572,39.6595770895173],[-94.3581174291403,39.6596570903672],[-94.3556374287624,39.6596770905533],[-94.3466474264823,39.6597770907632],[-94.3371174235874,39.659797092078],[-94.3275674211169,39.659557091978],[-94.3254974205527,39.6595370921401],[-94.3198774184597,39.6594870927691],[-94.3179474187217,39.6588170928912],[-94.299127412734,39.6589170933036],[-94.2911574114953,39.6588470939236],[-94.2852174092937,39.6587470943712],[-94.2853874083878,39.6440370917165],[-94.2856774063949,39.6295570893847],[-94.2808574057503,39.6295370901675],[-94.2808574047996,39.6286470901835],[-94.2810674044847,39.6203470883235],[-94.2810874043586,39.6149070876822],[-94.2823774043941,39.6149070869003],[-94.2824774035815,39.6078170862815],[-94.2825374035611,39.6005670851976],[-94.2728974006121,39.6005170852109],[-94.2633973982503,39.6005070860855],[-94.2578673967036,39.600487086474],[-94.2455873930783,39.6003470867556],[-94.2447673927465,39.600337087062],[-94.2432873919798,39.6003170871316],[-94.2352473905504,39.6001870880706],[-94.2258373871911,39.599947088232],[-94.2243773873471,39.599907088012],[-94.2240373868764,39.5999270879857],[-94.2165473857283,39.5998270884191],[-94.2117873839062,39.5997770892304],[-94.2076473831416,39.5997270893582],[-94.2071573831234,39.5995770891979],[-94.20701211247572,39.59953690783895]]]},"properties":{"PWSSNAME":"Clinton Co. PWSD #3","PWSSID":1024155,"IPWS":"MO1024155","STATUS":"Active","COUNTY":"Clinton","MDNRREG":"Kansas City","MDNRNUM":1,"SQMI":186.41725092,"ACRES":119307,"POP_SERVED":3960,"SCALE":24000,"COLOR":3,"YEAR_":1979,"LASTUPDATE":"2012/05/18","DB2GSE_ST_":0,"DB2GSE_Sde":0,"Shape__Area":817643091.257813,"Shape__Length":171386.560231729},"id":30},
{"type":"Feature","geometry":{"type":"Polygon","coordinates":[[[-94.2825374035611,39.6005670851976],[-94.2824774035815,39.6078170862815],[-94.2823774043941,39.6149070869003],[-94.2810874043586,39.6149070876822],[-94.2810674044847,39.6203470883235],[-94.2808574047996,39.6286470901835],[-94.2808574057503,39.6295370901675],[-94.2856774063949,39.6295570893847],[-94.2853874083878,39.6440370917165],[-94.2852174092937,39.6587470943712],[-94.2911574114953,39.6588470939236],[-94.299127412734,39.6589170933036],[-94.3179474187217,39.6588170928912],[-94.3198774184597,39.6594870927691],[-94.3254974205527,39.6595370921401],[-94.3275674211169,39.659557091978],[-94.3371174235874,39.659797092078],[-94.3466474264823,39.6597770907632],[-94.3556374287624,39.6596770905533],[-94.3558874277474,39.644967088113],[-94.356007426347,39.6301870854469],[-94.4125674406115,39.6304770825565],[-94.4125574413003,39.6304470823911],[-94.4128374396989,39.6158670797546],[-94.4229474427531,39.6158970796407],[-94.4292274436465,39.6159170787559],[-94.4329074456829,39.6159270782962],[-94.4330174432531,39.6013870764009],[-94.4332274432485,39.6013770759638],[-94.4332274432152,39.6013570758083],[-94.4426074463377,39.601257075602],[-94.4451374473193,39.6012270756814],[-94.4465972981246,39.6012139278654],[-94.4473574877658,39.601204188659],[-94.4474574471957,39.5939670742029],[-94.4470274460899,39.5866970728182],[-94.4477174450667,39.575767070854],[-94.4430174442989,39.5757470716771],[-94.4429874439344,39.5721370705892],[-94.4429674441107,39.5721470704135],[-94.4337274408384,39.5721970711748],[-94.433717440866,39.5720570711874],[-94.429487439857,39.5720470718615],[-94.4226274377078,39.5719470723091],[-94.4132774350569,39.5719270727366],[-94.4022274325326,39.5718370727482],[-94.3976574309447,39.5717970735218],[-94.3946874310674,39.5717770735969],[-94.3888374285078,39.5717570742174],[-94.3757474249752,39.5717070747135],[-94.375667425262,39.5717070749565],[-94.3756074254626,39.571707074427],[-94.3755674256137,39.5717070749576],[-94.3755374251225,39.5717070742274],[-94.3755174252067,39.5717070749327],[-94.3754974252729,39.5717070747338],[-94.3754874258968,39.5717070750766],[-94.3754574254051,39.5717070743257],[-94.3701174238656,39.5716670749734],[-94.3663974228202,39.5717270754769],[-94.3616274219491,39.5717770755603],[-94.3568674207332,39.5717770756017],[-94.3528874195789,39.5717570757662],[-94.3509274184629,39.5717770765289],[-94.3498374179811,39.5717870765483],[-94.3475074180073,39.5717570762897],[-94.3456974172829,39.5717670761535],[-94.3449874168877,39.5717470766841],[-94.3428574163808,39.5717370766307],[-94.3411674160623,39.5717670762923],[-94.339337415333,39.5717370764415],[-94.3381574150321,39.5716470768696],[-94.3276774127366,39.5717370771629],[-94.3197274102063,39.5717370783099],[-94.319627410682,39.5716170779984],[-94.3109074082709,39.5716570780921],[-94.3045074062142,39.5716570788822],[-94.3042774064253,39.5716870792589],[-94.3031674057662,39.5716470790888],[-94.3015674052438,39.5716370789215],[-94.3003974049347,39.5716070794563],[-94.2993474042312,39.5716270790309],[-94.2974174037282,39.571647079303],[-94.2926674031849,39.5716770797473],[-94.2920774022824,39.5716770791017],[-94.2853574006392,39.5717170796631],[-94.2826674006782,39.5716870797341],[-94.2826174007282,39.5788170811271],[-94.282517401493,39.58608708234],[-94.2825974017837,39.5861670821637],[-94.2825674020387,39.5933270834856],[-94.2825374029436,39.599757084483],[-94.2825374031027,39.6005570850053],[-94.2825374035611,39.6005670851976]]]},"properties":{"PWSSNAME":"Clinton Co. PWSD #4 - System 2","PWSSID":1024154,"IPWS":"MO1024154","STATUS":"Active","COUNTY":"Clinton","MDNRREG":"Kansas City","MDNRNUM":1,"SQMI":40.40628681,"ACRES":25860,"POP_SERVED":999,"SCALE":24000,"COLOR":6,"YEAR_":1974,"LASTUPDATE":"2012/05/18","DB2GSE_ST_":0,"DB2GSE_Sde":0,"Shape__Area":176618911.246094,"Shape__Length":62328.9660077212},"id":38},
{"type":"Feature","geometry":{"type":"Polygon","coordinates":[[[-94.20990165427739,39.49105223914458],[-94.20993,39.49125],[-94.209888,39.491458],[-94.209754,39.492046],[-94.209753,39.492048],[-94.209712,39.492751],[-94.209532,39.498296],[-94.209528,39.498396],[-94.20946,39.500005],[-94.209455,39.500099],[-94.209241,39.505668],[-94.209004,39.512743],[-94.208986,39.513261],[-94.208659,39.520195],[-94.208618,39.521309],[-94.208588,39.523015],[-94.208545,39.524822],[-94.208536,39.525526],[-94.208502,39.526897],[-94.208485,39.527098],[-94.20846,39.527162],[-94.208447,39.527179],[-94.208423,39.5272],[-94.208423,39.527323],[-94.208315,39.529488],[-94.208241,39.530962],[-94.208194,39.531625],[-94.208177,39.532325],[-94.208157,39.532649],[-94.208109,39.533403],[-94.208071,39.534126],[-94.207965,39.53612],[-94.20794,39.536807],[-94.207909,39.537196],[-94.207881,39.537733],[-94.207857,39.53803],[-94.20784,39.538241],[-94.207761,39.539639],[-94.20773,39.54058],[-94.207691,39.541643],[-94.207691,39.542603],[-94.20769,39.548273],[-94.207583,39.555902],[-94.207545,39.558192],[-94.207392,39.567684],[-94.207391,39.567686],[-94.207386,39.570551],[-94.207371,39.573368],[-94.207343,39.578607],[-94.207319,39.583023],[-94.207319,39.583084],[-94.207308,39.585152],[-94.207252,39.587864],[-94.20716,39.592312],[-94.207124,39.593996],[-94.20701211247572,39.59953690783895],[-94.2071573831234,39.5995770891979],[-94.2076473831416,39.5997270893582],[-94.2117873839062,39.5997770892304],[-94.2165473857283,39.5998270884191],[-94.2240373868764,39.5999270879857],[-94.2243773873471,39.599907088012],[-94.2258373871911,39.599947088232],[-94.2352473905504,39.6001870880706],[-94.2432873919798,39.6003170871316],[-94.2447673927465,39.600337087062],[-94.2455873930783,39.6003470867556],[-94.2578673967036,39.600487086474],[-94.2633973982503,39.6005070860855],[-94.2728974006121,39.6005170852109],[-94.2825374035611,39.6005670851976],[-94.2825374031027,39.6005570850053],[-94.2825374029436,39.599757084483],[-94.2825674020387,39.5933270834856],[-94.2825974017837,39.5861670821637],[-94.282517401493,39.58608708234],[-94.2826174007282,39.5788170811271],[-94.2826674006782,39.5716870797341],[-94.2853574006392,39.5717170796631],[-94.2920774022824,39.5716770791017],[-94.2926674031849,39.5716770797473],[-94.2974174037282,39.571647079303],[-94.2993474042312,39.5716270790309],[-94.3003974049347,39.5716070794563],[-94.3015674052438,39.5716370789215],[-94.3031674057662,39.5716470790888],[-94.3042774064253,39.5716870792589],[-94.3045074062142,39.5716570788822],[-94.3109074082709,39.5716570780921],[-94.319627410682,39.5716170779984],[-94.3197274102063,39.5717370783099],[-94.3276774127366,39.5717370771629],[-94.3381574150321,39.5716470768696],[-94.339337415333,39.5717370764415],[-94.3411674160623,39.5717670762923],[-94.3428574163808,39.5717370766307],[-94.3449874168877,39.5717470766841],[-94.3456974172829,39.5717670761535],[-94.3475074180073,39.5717570762897],[-94.3498374179811,39.5717870765483],[-94.3509274184629,39.5717770765289],[-94.3528874195789,39.5717570757662],[-94.3568674207332,39.5717770756017],[-94.3616274219491,39.5717770755603],[-94.3663974228202,39.5717270754769],[-94.3701174238656,39.5716670749734],[-94.3754574254051,39.5717070743257],[-94.3754874258968,39.5717070750766],[-94.3754974252729,39.5717070747338],[-94.3755174252067,39.5717070749327],[-94.3755374251225,39.5717070742274],[-94.3755674256137,39.5717070749576],[-94.3756074254626,39.571707074427],[-94.375667425262,39.5717070749565],[-94.3757474249752,39.5717070747135],[-94.3888374285078,39.5717570742174],[-94.3946874310674,39.5717770735969],[-94.3976574309447,39.5717970735218],[-94.4022274325326,39.5718370727482],[-94.4132774350569,39.5719270727366],[-94.4226274377078,39.5719470723091],[-94.429487439857,39.5720470718615],[-94.433717440866,39.5720570711874],[-94.4337274408384,39.5721970711748],[-94.4429674441107,39.5721470704135],[-94.4429774430314,39.5711570706149],[-94.4431274416391,39.5541170679741],[-94.443157441459,39.5506370670552],[-94.4519474441736,39.5506070666373],[-94.4518974434967,39.5503270665316],[-94.4518174433392,39.5498970668974],[-94.4518874442402,39.5492970665371],[-94.4518974438526,39.5487170664243],[-94.4549474448018,39.5486970664886],[-94.4550774451811,39.5503070665451],[-94.4585374451814,39.5503970664883],[-94.4585474460133,39.5505970662778],[-94.4586474455634,39.5539770670843],[-94.4586774463388,39.5539770671085],[-94.4586874459814,39.5558470671204],[-94.4622074466749,39.5558870671001],[-94.4624474473004,39.5557670672369],[-94.4629574471322,39.5556970671305],[-94.4635974475906,39.5556770669986],[-94.4642574478656,39.555677066558],[-94.4644674477416,39.5556470668954],[-94.4645874477205,39.5554770669279],[-94.4646474473281,39.5550070670006],[-94.4646274474217,39.5542470661571],[-94.4649174477537,39.554207066325],[-94.4660874480772,39.554247066795],[-94.4667274481719,39.5542070663658],[-94.4669074487126,39.5541070661757],[-94.4670674478201,39.5536970665424],[-94.4672374480369,39.5530870657916],[-94.4673774479761,39.5520770663339],[-94.4674674486689,39.5514670661834],[-94.4676474483269,39.5513870660223],[-94.468457448264,39.5512970653383],[-94.4694274491177,39.5511270656991],[-94.4700674490796,39.5509870655673],[-94.4705774488764,39.5507970658005],[-94.4711574494518,39.5506170652221],[-94.4712374486388,39.5505570652539],[-94.4715374494628,39.5503570653809],[-94.47179744879,39.5498670649038],[-94.47187744845,39.5486770651645],[-94.4722174469968,39.5287170622129],[-94.4910074528005,39.5288070604298],[-94.4911474508882,39.5134370583098],[-94.5006374530004,39.5134370577012],[-94.5006674525546,39.5000170554111],[-94.5006774515271,39.4954470542033],[-94.500747451052,39.4882670534701],[-94.5006674502439,39.4845970529847],[-94.5060174524688,39.4846170526471],[-94.508777452622,39.4846570523155],[-94.5101574528534,39.4846470521814],[-94.5103274501156,39.4556570475576],[-94.5197574528302,39.4556870464164],[-94.51975668450693,39.45562485025363],[-94.519725,39.455654],[-94.519679,39.455653],[-94.51916,39.455646],[-94.518988,39.455644],[-94.518478,39.455641],[-94.516948,39.455632],[-94.516439,39.455629],[-94.516227,39.455617],[-94.515591,39.455581],[-94.51538,39.455569],[-94.514955,39.455561],[-94.514938,39.45556],[-94.51453,39.455553],[-94.513778,39.455545],[-94.513614,39.455549],[-94.513173,39.45556],[-94.51258,39.455575],[-94.510804,39.45562],[-94.510213,39.455636],[-94.510087,39.455634],[-94.509535,39.455624],[-94.50949,39.455624],[-94.509355,39.455623],[-94.50678,39.455614],[-94.50647,39.455614],[-94.505923,39.455617],[-94.505555,39.45562],[-94.50474,39.455611],[-94.504255,39.455607],[-94.503546,39.455604],[-94.50254,39.455586],[-94.501796,39.455574],[-94.501185,39.455572],[-94.500435,39.455571],[-94.500001,39.455565],[-94.496712,39.455551],[-94.49624,39.455549],[-94.492481,39.455514],[-94.491444,39.455512],[-94.488547,39.455505],[-94.485931,39.455548],[-94.485193,39.455561],[-94.483527,39.455567],[-94.48301,39.45557],[-94.482885,39.455571],[-94.48259,39.455579],[-94.482484,39.455542],[-94.482125,39.455543],[-94.480756,39.455549],[-94.48048,39.455548],[-94.474471,39.455529],[-94.472468,39.455523],[-94.471574,39.455512],[-94.468892,39.455482],[-94.467998,39.455472],[-94.467072,39.455463],[-94.464297,39.455437],[-94.463372,39.455429],[-94.462664,39.455418],[-94.46054,39.455387],[-94.45983,39.455377],[-94.459212,39.455377],[-94.45735,39.455378],[-94.45673,39.455379],[-94.455245,39.45538],[-94.45079,39.455385],[-94.449306,39.455387],[-94.4488,39.455388],[-94.447282,39.45539],[-94.446777,39.455392],[-94.444744,39.455393],[-94.443362,39.455395],[-94.442934,39.455396],[-94.442505,39.455396],[-94.440532,39.455398],[-94.438648,39.455399],[-94.436616,39.455402],[-94.436379,39.455402],[-94.43567,39.455404],[-94.435434,39.455406],[-94.435394,39.455405],[-94.435275,39.455405],[-94.43524,39.455405],[-94.435164,39.455704],[-94.433421,39.455707],[-94.431665,39.455712],[-94.431294,39.455713],[-94.430922,39.455714],[-94.427269,39.455726],[-94.425219,39.455733],[-94.425112,39.455733],[-94.424331,39.455735],[-94.421669,39.455743],[-94.420782,39.455747],[-94.417668,39.455756],[-94.417154,39.455758],[-94.408328,39.455735],[-94.406976,39.455732],[-94.405215,39.455727],[-94.403584,39.455722],[-94.39913196332503,39.45571107475663],[-94.3970274195405,39.4557170536599],[-94.3751874139439,39.4556070550439],[-94.3717620311957,39.455594022754994],[-94.371418,39.455603],[-94.371023,39.455614],[-94.370684,39.455625],[-94.368633,39.455633],[-94.366423,39.455643],[-94.365951,39.455646],[-94.361464,39.455664],[-94.361218,39.455666],[-94.35941709592923,39.45555848333906],[-94.3592174107861,39.4628370574197],[-94.3544874088047,39.4628370572519],[-94.3542974094345,39.47006705916],[-94.3540674102216,39.4773570599665],[-94.3496674092128,39.4773470606429],[-94.3491874084339,39.4773470607586],[-94.3491274093965,39.480967060943],[-94.3491274093604,39.4810170608498],[-94.3444274082319,39.4810770616771],[-94.3444274076022,39.4809870612792],[-94.3444674076582,39.4774970610446],[-94.3398174063542,39.4774370611801],[-94.3304074035049,39.4774770612895],[-94.3210474015321,39.4774970623549],[-94.3213374010899,39.4701470609387],[-94.3041773963127,39.4700170614985],[-94.30439110185885,39.45553965910257],[-94.304308,39.455542],[-94.303417,39.455538],[-94.301733,39.455533],[-94.300746,39.455529],[-94.299856,39.455527],[-94.299783,39.455527],[-94.298941,39.455504],[-94.296197,39.455431],[-94.295283,39.455407],[-94.293348,39.455393],[-94.287546,39.455352],[-94.285612,39.455339],[-94.285495,39.455337],[-94.285144,39.455331],[-94.285027,39.455329],[-94.284862,39.455329],[-94.28437,39.455329],[-94.284206,39.455329],[-94.282632,39.455319],[-94.277913,39.45529],[-94.277077,39.455285],[-94.27634,39.45528],[-94.275653,39.455276],[-94.273592,39.455264],[-94.272905,39.455261],[-94.26984,39.455249],[-94.267018,39.455238],[-94.261375,39.455217],[-94.26065,39.455214],[-94.257584,39.455203],[-94.25384,39.45518],[-94.250334,39.455159],[-94.242623,39.455106],[-94.238884,39.455081],[-94.238687,39.455079],[-94.238374,39.455072],[-94.236847,39.455039],[-94.23634,39.455029],[-94.236172,39.455025],[-94.235676,39.455015],[-94.235511,39.455012],[-94.234287,39.454987],[-94.230618,39.454912],[-94.229395,39.454888],[-94.226171,39.454851],[-94.2165,39.454741],[-94.21509737032537,39.45472533302256],[-94.2150973722636,39.4766570680292],[-94.214407373747,39.4908770703303],[-94.20990165427739,39.49105223914458]]]},"properties":{"PWSSNAME":"Clinton Co. PWSD #4 - System 1","PWSSID":1024156,"IPWS":"MO1024156","STATUS":"Active","COUNTY":"Clinton","MDNRREG":"Kansas City","MDNRNUM":1,"SQMI":188.25416559,"ACRES":120483,"POP_SERVED":4986,"SCALE":24000,"COLOR":4,"YEAR_":1985,"LASTUPDATE":"2012/05/18","DB2GSE_ST_":0,"DB2GSE_Sde":0,"Shape__Area":820912173.207031,"Shape__Length":193272.521316001},"id":40},
{"type":"Feature","geometry":{"type":"Polygon","coordinates":[[[-94.21509737032537,39.45472533302256],[-94.213277,39.454705],[-94.212935,39.454702],[-94.211908,39.454693],[-94.211567,39.454691],[-94.210642,39.454682],[-94.210557,39.4549],[-94.210625,39.454947],[-94.210737,39.455066],[-94.210809,39.455201],[-94.210857,39.455326],[-94.210869,39.455387],[-94.210882,39.455502],[-94.210833,39.456267],[-94.21083,39.456337],[-94.210675,39.457353],[-94.210675,39.457357],[-94.210527,39.462011],[-94.210518,39.462148],[-94.210413,39.463825],[-94.210279,39.466611],[-94.210324,39.469252],[-94.21021,39.469874],[-94.210209,39.471259],[-94.210207,39.471388],[-94.210169,39.473271],[-94.210168,39.473358],[-94.210142,39.476743],[-94.210192,39.477406],[-94.210132,39.479136],[-94.210114,39.479743],[-94.210112,39.479803],[-94.2101,39.480048],[-94.210077,39.480781],[-94.210059,39.481327],[-94.20997,39.483999],[-94.209965,39.484078],[-94.209876,39.487407],[-94.209875,39.487431],[-94.209812,39.489586],[-94.209804,39.489584],[-94.20982,39.490467],[-94.209839,39.49062],[-94.209844,39.49065],[-94.20990165427739,39.49105223914458],[-94.214407373747,39.4908770703303],[-94.2150973722636,39.4766570680292],[-94.21509737032537,39.45472533302256]]]},"properties":{"PWSSNAME":"Ray Co. PWSD #1","PWSSID":1024510,"IPWS":"MO1024510","STATUS":"Active","COUNTY":"Ray","MDNRREG":"Kansas City","MDNRNUM":1,"SQMI":63.07058153,"ACRES":40365,"POP_SERVED":2775,"SCALE":24000,"COLOR":6,"YEAR_":1970,"LASTUPDATE":"2012/05/18","DB2GSE_ST_":0,"DB2GSE_Sde":0,"Shape__Area":274401184.363281,"Shape__Length":101527.268254041},"id":46},
{"type":"Feature","geometry":{"type":"Polygon","coordinates":[[[-94.5494174632598,39.4844570494292],[-94.5494174641019,39.4850670495406],[-94.5647874676551,39.4850470491411],[-94.5646874684902,39.4924470502547],[-94.5600574673999,39.4922570509466],[-94.5600674675923,39.499627051853],[-94.5695074703976,39.4995970511727],[-94.5788474729551,39.4995670506726],[-94.5788874730826,39.495877049956],[-94.5789174728615,39.4925970492901],[-94.570767469872,39.4923470502768],[-94.5707574692198,39.4849770489878],[-94.5707574694191,39.4848670482953],[-94.5707574690754,39.4777770471111],[-94.5696374684751,39.4777770472048],[-94.5691874665412,39.4631670454265],[-94.5693074664764,39.4559370434716],[-94.56930859818034,39.45585838621149],[-94.568669,39.45586],[-94.567855,39.455863],[-94.567638,39.455872],[-94.567481,39.455879],[-94.567342,39.455885],[-94.56725,39.455889],[-94.566969,39.455886],[-94.566131,39.45588],[-94.565684,39.455886],[-94.565519,39.455873],[-94.565436,39.455869],[-94.565184,39.455859],[-94.564925,39.455859],[-94.564806,39.455871],[-94.564733,39.45588],[-94.564523,39.455941],[-94.56446,39.455962],[-94.564433,39.455973],[-94.56436,39.456019],[-94.563897,39.455991],[-94.563823,39.455986],[-94.562924,39.455933],[-94.562751,39.455923],[-94.562511,39.455909],[-94.56207814278476,39.45588370314976],[-94.5620774642058,39.455917044219],[-94.5617274649216,39.4668170465647],[-94.54950746215,39.4668570467927],[-94.5495574621527,39.470567047385],[-94.5494174632598,39.4844570494292]]]},"properties":{"PWSSNAME":"Clinton Co. PWSD #1","PWSSID":1024153,"IPWS":"MO1024153","STATUS":"Active","COUNTY":"Clinton","MDNRREG":"Kansas City","MDNRNUM":1,"SQMI":2.52938659,"ACRES":1619,"POP_SERVED":1188,"SCALE":24000,"COLOR":4,"YEAR_":1967,"LASTUPDATE":"2012/05/18","DB2GSE_ST_":0,"DB2GSE_Sde":0,"Shape__Area":11013714.984375,"Shape__Length":22226.3359429369},"id":48},
{"type":"Feature","geometry":{"type":"Polygon","coordinates":[[[-94.5922974757606,39.4849370477504],[-94.5924974757863,39.4849370471937],[-94.5925874745813,39.4801070462449],[-94.60105050910488,39.48011162407634],[-94.60105,39.479676],[-94.60105,39.478406],[-94.601058,39.477182],[-94.601058,39.476938],[-94.601064,39.47446],[-94.60107,39.47337],[-94.601061,39.472533],[-94.601055,39.471405],[-94.601053,39.47127],[-94.60105,39.471066],[-94.601047,39.470935],[-94.601041,39.470545],[-94.60104,39.470415],[-94.601013,39.46988],[-94.601007,39.46975],[-94.600953,39.468837],[-94.600948,39.468776],[-94.600919,39.468408],[-94.600912,39.468276],[-94.600888,39.467742],[-94.600881,39.467588],[-94.600872,39.466842],[-94.600856,39.465413],[-94.600851,39.464143],[-94.600848,39.463244],[-94.600847,39.463112],[-94.600844,39.462718],[-94.600844,39.462587],[-94.600842,39.462336],[-94.600839,39.461583],[-94.600839,39.461333],[-94.600837,39.46054],[-94.600837,39.460297],[-94.600837,39.459368],[-94.600829,39.458218],[-94.60082,39.45719],[-94.600819,39.456155],[-94.600231,39.456091],[-94.59858767544462,39.45591399792204],[-94.5934474732282,39.4559070424269],[-94.5836874696506,39.4558770432978],[-94.5771874684441,39.4558870433215],[-94.5693074664764,39.4559370434716],[-94.5691874665412,39.4631670454265],[-94.5696374684751,39.4777770472048],[-94.5707574690754,39.4777770471111],[-94.5707574694191,39.4848670482953],[-94.5741074704087,39.4848970483901],[-94.5788674712125,39.4849270477366],[-94.5836774726476,39.4849370481911],[-94.5883674744696,39.4849370474098],[-94.5906874746184,39.484937047812],[-94.5922974757606,39.4849370477504]]]},"properties":{"PWSSNAME":"Platte Co. PWSD #8","PWSSID":1024482,"IPWS":"MO1024482","STATUS":"Active","COUNTY":"Platte","MDNRREG":"Kansas City","MDNRNUM":1,"SQMI":32.21504333,"ACRES":20618,"POP_SERVED":1101,"SCALE":24000,"COLOR":2,"YEAR_":1971,"LASTUPDATE":"2007/12/04","DB2GSE_ST_":0,"DB2GSE_Sde":0,"Shape__Area":131347752.890625,"Shape__Length":75377.9708836035},"id":49},
{"type":"Feature","geometry":{"type":"MultiPolygon","coordinates":[[[[-94.35941709592923,39.45555848333906],[-94.359342,39.455554],[-94.359079,39.455535],[-94.35883,39.455523],[-94.358463,39.455529],[-94.358297,39.455531],[-94.357816,39.455539],[-94.356648,39.455532],[-94.356269,39.455534],[-94.355135,39.455542],[-94.354987,39.455543],[-94.354757,39.455545],[-94.354317,39.455548],[-94.352996,39.455558],[-94.352557,39.455562],[-94.352493,39.455562],[-94.352258,39.455564],[-94.351363,39.455574],[-94.351234,39.455575],[-94.351065,39.455578],[-94.350791,39.455581],[-94.350393,39.455575],[-94.350374,39.455575],[-94.349307,39.455558],[-94.349103,39.455554],[-94.348982,39.455552],[-94.34838,39.455569],[-94.348369,39.45557],[-94.347832,39.455567],[-94.34771,39.455567],[-94.34724,39.455564],[-94.34583,39.455555],[-94.345361,39.455552],[-94.345101,39.455549],[-94.344591,39.455546],[-94.344321,39.455547],[-94.344062,39.455548],[-94.344026,39.455548],[-94.343921,39.455548],[-94.343886,39.455549],[-94.343628,39.45555],[-94.342856,39.455554],[-94.342599,39.455556],[-94.342579,39.455556],[-94.342521,39.455556],[-94.342502,39.455557],[-94.342435,39.455557],[-94.342234,39.455559],[-94.342168,39.45556],[-94.342053,39.45556],[-94.341707,39.455563],[-94.34159,39.455565],[-94.341386,39.455566],[-94.340765,39.455571],[-94.340559,39.455573],[-94.340478,39.455573],[-94.340238,39.455575],[-94.340158,39.455576],[-94.340136,39.455576],[-94.340071,39.455576],[-94.34005,39.455577],[-94.339916,39.455584],[-94.339517,39.455607],[-94.339384,39.455616],[-94.339314,39.455614],[-94.339108,39.455611],[-94.339039,39.45561],[-94.338871,39.455611],[-94.338846,39.45561],[-94.338271,39.455604],[-94.338079,39.455603],[-94.338056,39.455602],[-94.337988,39.455602],[-94.337966,39.455602],[-94.337826,39.4556],[-94.33741,39.455597],[-94.337271,39.455596],[-94.33704,39.455595],[-94.336899,39.455594],[-94.336705,39.455594],[-94.336157,39.45559],[-94.335405,39.455558],[-94.334868,39.455516],[-94.334613,39.455525],[-94.333744,39.455554],[-94.333262,39.455569],[-94.333194,39.455571],[-94.332714,39.455566],[-94.332337,39.455563],[-94.330055,39.455585],[-94.32989,39.455587],[-94.32987,39.455587],[-94.329808,39.455587],[-94.329788,39.455588],[-94.329766,39.455588],[-94.3297,39.455588],[-94.329679,39.455589],[-94.329382,39.455592],[-94.329039,39.455593],[-94.327119,39.4556],[-94.32648,39.455603],[-94.325869,39.4556],[-94.324817,39.455597],[-94.324312,39.455622],[-94.324135,39.455675],[-94.324045,39.455664],[-94.323761,39.455632],[-94.323439,39.455595],[-94.323396,39.455596],[-94.322777,39.455598],[-94.322402,39.455593],[-94.322282,39.455592],[-94.321925,39.455591],[-94.321806,39.455591],[-94.321648,39.455591],[-94.321174,39.455591],[-94.321017,39.455591],[-94.319594,39.455584],[-94.315327,39.455564],[-94.313905,39.455558],[-94.313318,39.455558],[-94.311557,39.455561],[-94.310971,39.455562],[-94.310423,39.45556],[-94.308782,39.455554],[-94.308235,39.455553],[-94.307591,39.455547],[-94.305662,39.455532],[-94.305019,39.455527],[-94.304876,39.455529],[-94.30445,39.455538],[-94.30439110185885,39.45553965910257],[-94.3041773963127,39.4700170614985],[-94.3213374010899,39.4701470609387],[-94.3210474015321,39.4774970623549],[-94.3304074035049,39.4774770612895],[-94.3398174063542,39.4774370611801],[-94.3444674076582,39.4774970610446],[-94.3444274076022,39.4809870612792],[-94.3444274082319,39.4810770616771],[-94.3491274093604,39.4810170608498],[-94.3491274093965,39.480967060943],[-94.3491874084339,39.4773470607586],[-94.3496674092128,39.4773470606429],[-94.3540674102216,39.4773570599665],[-94.3542974094345,39.47006705916],[-94.3544874088047,39.4628370572519],[-94.3592174107861,39.4628370574197],[-94.35941709592923,39.45555848333906]]],[[[-94.39913196332503,39.45571107475663],[-94.398694,39.45571],[-94.397064,39.455706],[-94.396985,39.455706],[-94.395613,39.455692],[-94.391264,39.45565],[-94.389814,39.455637],[-94.388992,39.455629],[-94.386529,39.455606],[-94.385708,39.455599],[-94.384169,39.455584],[-94.379554,39.455541],[-94.378016,39.455527],[-94.377427,39.455521],[-94.375661,39.455505],[-94.375225,39.455501],[-94.375073,39.455505],[-94.374658,39.455516],[-94.37342,39.45555],[-94.373003,39.455562],[-94.372606,39.455572],[-94.3717620311957,39.455594022754994],[-94.3751874139439,39.4556070550439],[-94.3970274195405,39.4557170536599],[-94.39913196332503,39.45571107475663]]]]},"properties":{"PWSSNAME":"Clay Co. PWSD #3","PWSSID":1024143,"IPWS":"MO1024143","STATUS":"Active","COUNTY":"Clay","MDNRREG":"Kansas City","MDNRNUM":1,"SQMI":25.04937699,"ACRES":16032,"POP_SERVED":3930,"SCALE":24000,"COLOR":2,"YEAR_":1966,"LASTUPDATE":"2012/05/18","DB2GSE_ST_":0,"DB2GSE_Sde":0,"Shape__Area":108950582.21875,"Shape__Length":54949.8781864586},"id":50}
]}