{
  "type": "FeatureCollection",
  "features": [
    {
      "type": "Feature",
      "properties": {
        "district_id": 1,
        "name": "Atchison-Gower",
        "label_lon": -94.565,
        "label_lat": 39.635
      },
      "geometry": {
        "type": "Polygon",
        "coordinates": [
          [
            [
              -94.60121154785156,
              39.597950729405234
            ],
            [
              -94.60129737854004,
              39.59920730654355
            ],
            [
              -94.60129737854004,
              39.60172036963252
            ],
            [
              -94.60138320922852,
              39.60172036963252
            ],
            [
              -94.60129737854004,
              39.60291073611013
            ],
            [
              -94.60164070129395,
              39.60522527902177
            ],
            [
              -94.60164070129395,
              39.605555921693984
            ],
            [
              -94.6018511164571,
              39.60928435419433
            ],
            [
              -94.60224151611328,
              39.61309414625365
            ],
            [
              -94.60224151611328,
              39.63900879504321
            ],
            [
              -94.60224151611328,
              39.64006632964755
            ],
            [
              -94.60224151611328,
              39.70613014927933
            ],
            [
              -94.60224151611328,
              39.706658405075146
            ],
            [
              -94.60224151611328,
              39.70771490453352
            ],
            [
              -94.60224151611328,
              39.74732195489861
            ],
            [
              -94.57443237304688,
              39.74732195489861
            ],
            [
              -94.57202911376953,
              39.74705798323693
            ],
            [
              -94.57099914550781,
              39.74705798323693
            ],
            [
              -94.56962585449219,
              39.74705798323693
            ],
            [
              -94.56310272216797,
              39.74705798323693
            ],
            [
              -94.54456329345703,
              39.74732195489861
            ],
            [
              -94.54490661621094,
              39.7399303660792
            ],
            [
              -94.5538330078125,
              39.7399303660792
            ],
            [
              -94.5538330078125,
              39.73623427433785
            ],
            [
              -94.54902648925781,
              39.73623427433785
            ],
            [
              -94.54902648925781,
              39.73280201166622
            ],
            [
              -94.54456329345703,
              39.73280201166622
            ],
            [
              -94.54423384485251,
              39.70771490453352
            ],
            [
              -94.54421997070312,
              39.70771490453352
            ],
            [
              -94.54421997070312,
              39.706658405075146
            ],
            [
              -94.54421997070312,
              39.70348880963438
            ],
            [
              -94.53048706054688,
              39.70348880963438
            ],
            [
              -94.53048706054688,
              39.699790764269686
            ],
            [
              -94.5315170288086,
              39.699790764269686
            ],
            [
              -94.5315170288086,
              39.69609252073724
            ],
            [
              -94.52911376953125,
              39.69609252073724
            ],
            [
              -94.52945709228516,
              39.68446817957622
            ],
            [
              -94.5267105102539,
              39.68526081046738
            ],
            [
              -94.52705383300781,
              39.66702799810168
            ],
            [
              -94.5267105102539,
              39.66702799810168
            ],
            [
              -94.50817108154297,
              39.66702799810168
            ],
            [
              -94.50817108154297,
              39.67072779849952
            ],
            [
              -94.50336456298828,
              39.67072779849952
            ],
            [
              -94.50336456298828,
              39.67310613698794
            ],
            [
              -94.50336456298828,
              39.67363464553235
            ],
            [
              -94.50336456298828,
              39.68129756502577
            ],
            [
              -94.5028729863507,
              39.68130357011464
            ],
            [
              -94.4820785522461,
              39.681693899805765
            ],
            [
              -94.4820785522461,
              39.68158321190532
            ],
            [
              -94.47040557861328,
              39.68182601089364
            ],
            [
              -94.47040557861328,
              39.67363464553235
            ],
            [
              -94.47023391723633,
              39.6452215792735
            ],
            [
              -94.47220802307164,
              39.64515548872995
            ],
            [
              -94.47409629821777,
              39.645089398186414
            ],
            [
              -94.47418212890625,
              39.645089398186414
            ],
            [
              -94.48173522949219,
              39.645089398186414
            ],
            [
              -94.4820785522461,
              39.645089398186414
            ],
            [
              -94.48225021362305,
              39.645089398186414
            ],
            [
              -94.48259353637695,
              39.645089398186414
            ],
            [
              -94.4827651977539,
              39.645089398186414
            ],
            [
              -94.48310852050781,
              39.645089398186414
            ],
            [
              -94.48928833007812,
              39.645089398186414
            ],
            [
              -94.48928833007812,
              39.64006632964755
            ],
            [
              -94.48928833007812,
              39.63980194751246
            ],
            [
              -94.48928833007812,
              39.639273180210274
            ],
            [
              -94.48928833007812,
              39.63900879504321
            ],
            [
              -94.48929229053323,
              39.63900879504321
            ],
            [
              -94.4893741607666,
              39.6226128061635
            ],
            [
              -94.4893741607666,
              39.62248271665181
            ],
            [
              -94.48937481034369,
              39.62248271665181
            ],
            [
              -94.48945999145508,
              39.60542366481455
            ],
            [
              -94.48947124732611,
              39.60542366481455
            ],
            [
              -94.48954582214355,
              39.6019186479749
            ],
            [
              -94.48954582214355,
              39.597818469399584
            ],
            [
              -94.48980331420898,
              39.58862498800661
            ],
            [
              -94.48986851590892,
              39.58862498800661
            ],
            [
              -94.49029082748582,
              39.572351519967036
            ],
            [
              -94.48997497558594,
              39.572351519967036
            ],
            [
              -94.49066162109375,
              39.54349972635451
            ],
            [
              -94.49083172175048,
              39.54349972635451
            ],
            [
              -94.4908332824707,
              39.54336735102652
            ],
            [
              -94.5267105102539,
              39.54349972635451
            ],
            [
              -94.56962585449219,
              39.54349972635451
            ],
            [
              -94.57099914550781,
              39.54349972635451
            ],
            [
              -94.57099914550781,
              39.54351123721966
            ],
            [
              -94.60121154785156,
              39.543764476252996
            ],
            [
              -94.60121154785156,
              39.571292950679606
            ],
            [
              -94.60121154785156,
              39.57168991605653
            ],
            [
              -94.60129737854004,
              39.57168991605653
            ],
            [
              -94.60129737854004,
              39.572748479282716
            ],
            [
              -94.60121154785156,
              39.588889565671714
            ],
            [
              -94.60121154785156,
              39.59669415226692
            ],
            [
              -94.60121154785156,
              39.597950729405234
            ]
          ]
        ]
      }
    },
    {
      "type": "Feature",
      "properties": {
        "district_id": 2,
        "name": "Concord-Concord",
        "label_lon": -94.435,
        "label_lat": 39.625
      },
      "geometry": {
        "type": "Polygon",
        "coordinates": [
          [
            [
              -94.49031829833984,
              39.572351519967036
            ],
            [
              -94.49029759164618,
              39.572351519967036
            ],
            [
              -94.48963165283203,
              39.59788460513317
            ],
            [
              -94.48962991808797,
              39.5979661381141
            ],
            [
              -94.4893741607666,
              39.62948783063659
            ],
            [
              -94.4893741607666,
              39.637620756335004
            ],
            [
              -94.4893741607666,
              39.63940537241482
            ],
            [
              -94.4893741607666,
              39.63966975606591
            ],
            [
              -94.48937016848512,
              39.63966975606591
            ],
            [
              -94.48928833007812,
              39.645089398186414
            ],
            [
              -94.48310852050781,
              39.645089398186414
            ],
            [
              -94.48225021362305,
              39.645107260478404
            ],
            [
              -94.4820785522461,
              39.64511083293681
            ],
            [
              -94.48173522949219,
              39.6451179778536
            ],
            [
              -94.47040557861328,
              39.64535376010791
            ],
            [
              -94.47040557861328,
              39.67310613698794
            ],
            [
              -94.47040557861328,
              39.67363464553235
            ],
            [
              -94.47040557861328,
              39.68182601089364
            ],
            [
              -94.48173522949219,
              39.68158380700088
            ],
            [
              -94.48173522949219,
              39.681561788465174
            ],
            [
              -94.4820785522461,
              39.681557594442324
            ],
            [
              -94.5028729863507,
              39.68130357011464
            ],
            [
              -94.50319290161133,
              39.68129756502577
            ],
            [
              -94.50335348744638,
              39.67363464553235
            ],
            [
              -94.50336456298828,
              39.67310613698794
            ],
            [
              -94.50336456298828,
              39.67072779849952
            ],
            [
              -94.50817108154297,
              39.67072779849952
            ],
            [
              -94.50799942016602,
              39.66702799810168
            ],
            [
              -94.50817108154297,
              39.66702799810168
            ],
            [
              -94.5267105102539,
              39.66702799810168
            ],
            [
              -94.52705383300781,
              39.66702799810168
            ],
            [
              -94.5267105102539,
              39.68526081046738
            ],
            [
              -94.52945709228516,
              39.68446817957622
            ],
            [
              -94.52911376953125,
              39.69609252073724
            ],
            [
              -94.5315170288086,
              39.69609252073724
            ],
            [
              -94.5315170288086,
              39.699790764269686
            ],
            [
              -94.53048706054688,
              39.699790764269686
            ],
            [
              -94.53048706054688,
              39.70348880963438
            ],
            [
              -94.54421997070312,
              39.70348880963438
            ],
            [
              -94.54421997070312,
              39.706658405075146
            ],
            [
              -94.54456329345703,
              39.73280201166622
            ],
            [
              -94.54902648925781,
              39.73280201166622
            ],
            [
              -94.54902648925781,
              39.73623427433785
            ],
            [
              -94.5538330078125,
              39.73623427433785
            ],
            [
              -94.5538330078125,
              39.7399303660792
            ],
            [
              -94.54490661621094,
              39.7399303660792
            ],
            [
              -94.54456329345703,
              39.747585925548904
            ],
            [
              -94.49169158935547,
              39.747849895187834
            ],
            [
              -94.4882583618164,
              39.747585925548904
            ],
            [
              -94.48310852050781,
              39.747585925548904
            ],
            [
              -94.48173522949219,
              39.747585925548904
            ],
            [
              -94.45701599121094,
              39.747585925548904
            ],
            [
              -94.43229675292969,
              39.74732195489861
            ],
            [
              -94.43229675292969,
              39.70771490453352
            ],
            [
              -94.43229675292969,
              39.706658405075146
            ],
            [
              -94.43229675292969,
              39.70375294814879
            ],
            [
              -94.39384460449219,
              39.70348880963438
            ],
            [
              -94.38835144042969,
              39.70348880963438
            ],
            [
              -94.38835144042969,
              39.68895963432068
            ],
            [
              -94.39384460449219,
              39.68895963432068
            ],
            [
              -94.39521789550781,
              39.68895963432068
            ],
            [
              -94.39727783203125,
              39.68895963432068
            ],
            [
              -94.39727783203125,
              39.6649137374913
            ],
            [
              -94.39521789550781,
              39.6649137374913
            ],
            [
              -94.39384460449219,
              39.6649137374913
            ],
            [
              -94.3886947631836,
              39.6649137374913
            ],
            [
              -94.3886947631836,
              39.65962780293522
            ],
            [
              -94.37908172607422,
              39.65962780293522
            ],
            [
              -94.37927597688963,
              39.65544034997614
            ],
            [
              -94.37933921813965,
              39.65222681530652
            ],
            [
              -94.37461853027344,
              39.65222681530652
            ],
            [
              -94.37453269958496,
              39.65222681530652
            ],
            [
              -94.37453269958496,
              39.64508817428395
            ],
            [
              -94.3560791015625,
              39.64482503525422
            ],
            [
              -94.3560791015625,
              39.64006632964755
            ],
            [
              -94.3560791015625,
              39.63900879504321
            ],
            [
              -94.3560791015625,
              39.62499493498286
            ],
            [
              -94.3560791015625,
              39.61547446770287
            ],
            [
              -94.3564224243164,
              39.58611144979879
            ],
            [
              -94.35676574707031,
              39.571292950679606
            ],
            [
              -94.35678424665197,
              39.571292950679606
            ],
            [
              -94.35728073120117,
              39.549985808105525
            ],
            [
              -94.35745239257812,
              39.542705470599
            ],
            [
              -94.35745239257812,
              39.53820451628463
            ],
            [
              -94.35745239257812,
              39.537674973057925
            ],
            [
              -94.35747046095618,
              39.537674973057925
            ],
            [
              -94.35779571533203,
              39.5281425041696
            ],
            [
              -94.39384460449219,
              39.5281425041696
            ],
            [
              -94.39521789550781,
              39.5281425041696
            ],
            [
              -94.39521789550781,
              39.52815342410676
            ],
            [
              -94.4104957739324,
              39.52827490853395
            ],
            [
              -94.42731857299805,
              39.52827490853395
            ],
            [
              -94.4388198852539,
              39.528407312645825
            ],
            [
              -94.4388198852539,
              39.528413668018956
            ],
            [
              -94.48104858398438,
              39.5288045234666
            ],
            [
              -94.4820785522461,
              39.5288045234666
            ],
            [
              -94.4827651977539,
              39.5288045234666
            ],
            [
              -94.4861984210377,
              39.5288045234666
            ],
            [
              -94.49066162109375,
              39.528672120112155
            ],
            [
              -94.49100494384766,
              39.54032264879226
            ],
            [
              -94.49031829833984,
              39.572351519967036
            ]
          ]
        ]
      }
    },
    {
      "type": "Feature",
      "properties": {
        "district_id": 3,
        "name": "Hardin-Trimble",
        "label_lon": -94.505,
        "label_lat": 39.49
      },
      "geometry": {
        "type": "Polygon",
        "coordinates": [
          [
            [
              -94.56962585449219,
              39.45581202472926
            ],
            [
              -94.57099914550781,
              39.45581202472926
            ],
            [
              -94.60086822509766,
              39.45581202472926
            ],
            [
              -94.60086822509766,
              39.503510901814
            ],
            [
              -94.60121154785156,
              39.543764476252996
            ],
            [
              -94.5706558227539,
              39.54350835950338
            ],
            [
              -94.5706558227539,
              39.54363210143
            ],
            [
              -94.52825546264648,
              39.54349972635451
            ],
            [
              -94.52808380126953,
              39.54349972635451
            ],
            [
              -94.5267105102539,
              39.54349972635451
            ],
            [
              -94.5260238647461,
              39.54349972635451
            ],
            [
              -94.49066162109375,
              39.54349972635451
            ],
            [
              -94.4908332824707,
              39.53979312172527
            ],
            [
              -94.4908332824707,
              39.53820451628463
            ],
            [
              -94.49066162109375,
              39.5288045234666
            ],
            [
              -94.4861984210377,
              39.5288045234666
            ],
            [
              -94.48310852050781,
              39.52889618711374
            ],
            [
              -94.48310852050781,
              39.52893692656857
            ],
            [
              -94.48173522949219,
              39.52893692656857
            ],
            [
              -94.48104858398438,
              39.52893692656857
            ],
            [
              -94.4271469116211,
              39.528407312645825
            ],
            [
              -94.39521789550781,
              39.528407312645825
            ],
            [
              -94.39384460449219,
              39.528407312645825
            ],
            [
              -94.39041137695312,
              39.528407312645825
            ],
            [
              -94.39041503166204,
              39.52827480011401
            ],
            [
              -94.39041137695312,
              39.52827490853395
            ],
            [
              -94.39092636108398,
              39.503775804203954
            ],
            [
              -94.39093770933128,
              39.503775804203954
            ],
            [
              -94.39126968383789,
              39.48827731619337
            ],
            [
              -94.37753677368164,
              39.488144835591235
            ],
            [
              -94.37736511230469,
              39.488144835591235
            ],
            [
              -94.37769617323883,
              39.48482327514521
            ],
            [
              -94.37770209273282,
              39.48469992500901
            ],
            [
              -94.37255859375,
              39.48443527625449
            ],
            [
              -94.37341690063477,
              39.46036166238079
            ],
            [
              -94.37341690063477,
              39.45554693960605
            ],
            [
              -94.37358852421524,
              39.455547999714085
            ],
            [
              -94.37358856201172,
              39.45554693960605
            ],
            [
              -94.39384460449219,
              39.45554693960605
            ],
            [
              -94.39521789550781,
              39.45554693960605
            ],
            [
              -94.39521789550781,
              39.455562532848596
            ],
            [
              -94.41633224487305,
              39.455802278952675
            ],
            [
              -94.41633224487305,
              39.45574575354309
            ],
            [
              -94.41719055175781,
              39.45574575354309
            ],
            [
              -94.43512916564941,
              39.45567948229384
            ],
            [
              -94.43521499633789,
              39.45561321098148
            ],
            [
              -94.43830490112305,
              39.45561321098148
            ],
            [
              -94.45401191711426,
              39.455480668167525
            ],
            [
              -94.46027755737305,
              39.455480668167525
            ],
            [
              -94.46062088012695,
              39.455480668167525
            ],
            [
              -94.46079253071888,
              39.455480668167525
            ],
            [
              -94.46834564208984,
              39.455414396665915
            ],
            [
              -94.47538376524504,
              39.45554693960605
            ],
            [
              -94.48173522949219,
              39.45554693960605
            ],
            [
              -94.482421875,
              39.45554693960605
            ],
            [
              -94.48310852050781,
              39.45554693960605
            ],
            [
              -94.52104568481445,
              39.45554693960605
            ],
            [
              -94.5212173461914,
              39.45554693960605
            ],
            [
              -94.5260238647461,
              39.45557639350863
            ],
            [
              -94.5260238647461,
              39.45554693960605
            ],
            [
              -94.54593658447266,
              39.45567948229384
            ],
            [
              -94.54593658447266,
              39.45569841681932
            ],
            [
              -94.5644760131836,
              39.45581202472926
            ],
            [
              -94.56962585449219,
              39.45581202472926
            ]
          ]
        ]
      }
    },
    {
      "type": "Feature",
      "properties": {
        "district_id": 4,
        "name": "Jackson-Holt",
        "label_lon": -94.295,
        "label_lat": 39.49
      },
      "geometry": {
        "type": "Polygon",
        "coordinates": [
          [
            [
              -94.3062973022461,
              39.45554693960605
            ],
            [
              -94.3069839477539,
              39.45554693960605
            ],
            [
              -94.37341690063477,
              39.45554693960605
            ],
            [
              -94.37358856201172,
              39.45554693960605
            ],
            [
              -94.37341690063477,
              39.46036166238079
            ],
            [
              -94.37341690063477,
              39.460980982873444
            ],
            [
              -94.37309291877389,
              39.46986009174581
            ],
            [
              -94.37324523925781,
              39.46986009174581
            ],
            [
              -94.37273025512695,
              39.48443527625449
            ],
            [
              -94.3777084350586,
              39.48456776392398
            ],
            [
              -94.37770209273282,
              39.48469992500901
            ],
            [
              -94.3777084350586,
              39.48470025134107
            ],
            [
              -94.37769617323883,
              39.48482327514521
            ],
            [
              -94.37753677368164,
              39.488144835591235
            ],
            [
              -94.39144134521484,
              39.488144835591235
            ],
            [
              -94.39109802246094,
              39.50457050531534
            ],
            [
              -94.39106848431015,
              39.50457050531534
            ],
            [
              -94.39041137695312,
              39.5281425041696
            ],
            [
              -94.35779571533203,
              39.5281425041696
            ],
            [
              -94.3509292602539,
              39.5281425041696
            ],
            [
              -94.32947158813477,
              39.52827490853395
            ],
            [
              -94.3062973022461,
              39.5281425041696
            ],
            [
              -94.30595397949219,
              39.5281425041696
            ],
            [
              -94.30320739746094,
              39.5281425041696
            ],
            [
              -94.30200576782227,
              39.52827490853395
            ],
            [
              -94.26646424402811,
              39.5279188873374
            ],
            [
              -94.25994873046875,
              39.52787769468346
            ],
            [
              -94.25239562988281,
              39.5281425041696
            ],
            [
              -94.21806335449219,
              39.527348072681455
            ],
            [
              -94.21806335449219,
              39.52733525918484
            ],
            [
              -94.20845031738281,
              39.527215666549765
            ],
            [
              -94.20896530151367,
              39.513046751702
            ],
            [
              -94.20913696289062,
              39.51278188465408
            ],
            [
              -94.20930862426758,
              39.505630092660724
            ],
            [
              -94.20930862426758,
              39.50430560595462
            ],
            [
              -94.20930862426758,
              39.503775804203954
            ],
            [
              -94.20933101300452,
              39.503775804203954
            ],
            [
              -94.20982360839844,
              39.49211914385643
            ],
            [
              -94.2103385925293,
              39.46986009174581
            ],
            [
              -94.21035022932553,
              39.46986009174581
            ],
            [
              -94.2106819152832,
              39.45475167817997
            ],
            [
              -94.2184066772461,
              39.45475167817997
            ],
            [
              -94.2190933227539,
              39.45475167817997
            ],
            [
              -94.22183990478516,
              39.45475167817997
            ],
            [
              -94.23866271972656,
              39.455016766331404
            ],
            [
              -94.2623519897461,
              39.455274386229995
            ],
            [
              -94.2623519897461,
              39.455149310028595
            ],
            [
              -94.29513931274414,
              39.455414396665915
            ],
            [
              -94.29977416992188,
              39.45554693960605
            ],
            [
              -94.30595397949219,
              39.45554693960605
            ],
            [
              -94.3062973022461,
              39.45554693960605
            ]
          ]
        ]
      }
    },
    {
      "type": "Feature",
      "properties": {
        "district_id": 5,
        "name": "Lathrop-Lathrop",
        "label_lon": -94.285,
        "label_lat": 39.585
      },
      "geometry": {
        "type": "Polygon",
        "coordinates": [
          [
            [
              -94.35779571533203,
              39.5281425041696
            ],
            [
              -94.35676574707031,
              39.572351519967036
            ],
            [
              -94.3567471872238,
              39.572351519967036
            ],
            [
              -94.3564224243164,
              39.586243743556594
            ],
            [
              -94.35625076293945,
              39.60595269081663
            ],
            [
              -94.35619043353367,
              39.60595269081663
            ],
            [
              -94.3560791015625,
              39.61547446770287
            ],
            [
              -94.3560791015625,
              39.62499493498286
            ],
            [
              -94.3560791015625,
              39.63900879504321
            ],
            [
              -94.3560791015625,
              39.64006632964755
            ],
            [
              -94.3560791015625,
              39.64482503525422
            ],
            [
              -94.32380676269531,
              39.64482503525422
            ],
            [
              -94.3179702758789,
              39.64482503525422
            ],
            [
              -94.317626953125,
              39.64403194039347
            ],
            [
              -94.30801391601562,
              39.644296306357745
            ],
            [
              -94.30732727050781,
              39.644296306357745
            ],
            [
              -94.30595397949219,
              39.644296306357745
            ],
            [
              -94.30595397949219,
              39.64428993609354
            ],
            [
              -94.25033569335938,
              39.64403194039347
            ],
            [
              -94.21806335449219,
              39.64323883643651
            ],
            [
              -94.21806335449219,
              39.64321100801472
            ],
            [
              -94.20639038085938,
              39.642974466429486
            ],
            [
              -94.20639038085938,
              39.64006632964755
            ],
            [
              -94.20639038085938,
              39.63900879504321
            ],
            [
              -94.20640616330994,
              39.63900879504321
            ],
            [
              -94.20673370361328,
              39.61706130319665
            ],
            [
              -94.2074203491211,
              39.58505309064359
            ],
            [
              -94.2074203491211,
              39.572086879160494
            ],
            [
              -94.2074203491211,
              39.571292950679606
            ],
            [
              -94.20742930345286,
              39.571292950679606
            ],
            [
              -94.207763671875,
              39.54164644878489
            ],
            [
              -94.20793533325195,
              39.537674973057925
            ],
            [
              -94.20796014989473,
              39.537674973057925
            ],
            [
              -94.20845031738281,
              39.527215666549765
            ],
            [
              -94.2190933227539,
              39.527348072681455
            ],
            [
              -94.2190933227539,
              39.52736137975425
            ],
            [
              -94.25256729125977,
              39.528010099552766
            ],
            [
              -94.25994873046875,
              39.52787769468346
            ],
            [
              -94.2623519897461,
              39.52787769468346
            ],
            [
              -94.2630386352539,
              39.52787769468346
            ],
            [
              -94.2630386352539,
              39.52788457284537
            ],
            [
              -94.26646424402863,
              39.5279188873374
            ],
            [
              -94.30183410644531,
              39.5281425041696
            ],
            [
              -94.30320739746094,
              39.5281425041696
            ],
            [
              -94.30595397949219,
              39.5281425041696
            ],
            [
              -94.3062973022461,
              39.5281425041696
            ],
            [
              -94.3069839477539,
              39.5281425041696
            ],
            [
              -94.30732727050781,
              39.5281425041696
            ],
            [
              -94.30732727050781,
              39.52814838880802
            ],
            [
              -94.32947158813477,
              39.52827490853395
            ],
            [
              -94.3502426147461,
              39.52814674110926
            ],
            [
              -94.3502426147461,
              39.5281425041696
            ],
            [
              -94.3509292602539,
              39.5281425041696
            ],
            [
              -94.35779571533203,
              39.5281425041696
            ]
          ]
        ]
      }
    },
    {
      "type": "Feature",
      "properties": {
        "district_id": 6,
        "name": "Shoal-Cameron",
        "label_lon": -94.31,
        "label_lat": 39.7
      },
      "geometry": {
        "type": "Polygon",
        "coordinates": [
          [
            [
              -94.39727783203125,
              39.6649137374913
            ],
            [
              -94.39727783203125,
              39.68895963432068
            ],
            [
              -94.39521789550781,
              39.68895963432068
            ],
            [
              -94.39384460449219,
              39.68895963432068
            ],
            [
              -94.38835144042969,
              39.68895963432068
            ],
            [
              -94.38835144042969,
              39.70348880963438
            ],
            [
              -94.39384460449219,
              39.70348880963438
            ],
            [
              -94.39521789550781,
              39.70348880963438
            ],
            [
              -94.39521789550781,
              39.70349824315275
            ],
            [
              -94.43229675292969,
              39.70375294814879
            ],
            [
              -94.43229675292969,
              39.706658405075146
            ],
            [
              -94.43229675292969,
              39.70771490453352
            ],
            [
              -94.43229675292969,
              39.74732195489861
            ],
            [
              -94.39521789550781,
              39.74732195489861
            ],
            [
              -94.39384460449219,
              39.74732195489861
            ],
            [
              -94.39350128173828,
              39.74732195489861
            ],
            [
              -94.37358856201172,
              39.74732195489861
            ],
            [
              -94.34062957763672,
              39.74705798323693
            ],
            [
              -94.31900024414062,
              39.74705798323693
            ],
            [
              -94.31900024414062,
              39.74732195489861
            ],
            [
              -94.31659698486328,
              39.74732195489861
            ],
            [
              -94.30938720703125,
              39.74732195489861
            ],
            [
              -94.30732727050781,
              39.74732195489861
            ],
            [
              -94.30595397949219,
              39.74732195489861
            ],
            [
              -94.30595397949219,
              39.74729777419574
            ],
            [
              -94.2623519897461,
              39.74653003687947
            ],
            [
              -94.22492980957031,
              39.746266062183686
            ],
            [
              -94.21943664550781,
              39.746054881617965
            ],
            [
              -94.21943664550781,
              39.746266062183686
            ],
            [
              -94.20604705810547,
              39.74573810975802
            ],
            [
              -94.20570373535156,
              39.722768263943145
            ],
            [
              -94.20604705810547,
              39.706658405075146
            ],
            [
              -94.2060526607908,
              39.706658405075146
            ],
            [
              -94.20639038085938,
              39.642974466429486
            ],
            [
              -94.21943664550781,
              39.64323883643651
            ],
            [
              -94.21943664550781,
              39.64327258554106
            ],
            [
              -94.25033569335938,
              39.64403194039347
            ],
            [
              -94.30732727050781,
              39.644296306357745
            ],
            [
              -94.30801391601562,
              39.644296306357745
            ],
            [
              -94.317626953125,
              39.64403194039347
            ],
            [
              -94.3179702758789,
              39.64482503525422
            ],
            [
              -94.32380676269531,
              39.64482503525422
            ],
            [
              -94.37238693237305,
              39.64507778765223
            ],
            [
              -94.37238693237305,
              39.64495721684665
            ],
            [
              -94.37453269958496,
              39.64495721684665
            ],
            [
              -94.37453269958496,
              39.64508895162741
            ],
            [
              -94.37461853027344,
              39.645089398186414
            ],
            [
              -94.37461853027344,
              39.65222681530652
            ],
            [
              -94.37933921813965,
              39.65222681530652
            ],
            [
              -94.37942504882812,
              39.65222681530652
            ],
            [
              -94.37927597688963,
              39.65544034997614
            ],
            [
              -94.37925338745117,
              39.65658820748457
            ],
            [
              -94.37922272918532,
              39.65658820748457
            ],
            [
              -94.37908172607422,
              39.65962780293522
            ],
            [
              -94.3886947631836,
              39.65962780293522
            ],
            [
              -94.3886947631836,
              39.6649137374913
            ],
            [
              -94.39384460449219,
              39.6649137374913
            ],
            [
              -94.39521789550781,
              39.6649137374913
            ],
            [
              -94.39727783203125,
              39.6649137374913
            ]
          ]
        ]
      }
    }
  ]
}